"UniqueID","UniversalPublicationId","BulkOrigin","BulkUniqueId","DirectoryName","Address1","PostCode","City","Province","Country"
"0717622152","USNY100725082","DnB","606511041","Truck Service Center","110 Classon Ave","11205","Brooklyn","NY","USA"
"2030660104","USPA100850567","DBUSA","1114001259018112450032132250","Alloyed Wheel Repair Specialist","4901 Umbria St","19128","Philadelphia","PA","USA"
"0732950480","USKY100351110","DnB","621839369","Elite Family Dentistry","6287 Tylrsvlle Rd Bldng Bldngz","40023","Fisherville","KY","USA"
"0140575137","USIL100174494","DnB","029464026","O'Charley's","4241 Conestoga Dr","62711","Springfield","IL","USA"
"2001936809","USFL100115106","DBUSA","1113254537517512438245163576","Family's Choice Electrical Rep","3334 Se 138th Pl","34491","Summerfield","FL","USA"
"2033853265","USTX102481808","DBUSA","1114001852099412450033216697","B Barnes Holdings","2500 Business Center Dr Apt 4303","77584","Pearland","TX","USA"
"2035935787","USKY100081558","DBUSA","1114000447444512450064998278","Mindful Medicine","2134 Nicholasville Rd Ste 12","40503","Lexington","KY","USA"
"0151340905","USSC100409701","DnB","040229794","Moanikai Massage & Wellness","850 Wade Hampton Blvd C","29609","Greenville","SC","USA"
"2000837403","USOK100009425","DBUSA","1113254198514212438202824280","Thelma B Chambers-Young","921 Ne 13th St","73104","Oklahoma City","OK","USA"
"2011065568","USNY100677006","DBUSA","1113255144053911132551440539","Jumbo Travel","3535 31st St","11106","Astoria","NY","USA"
"2002126703","USOH100066884","DBUSA","1113254803355312450009355428","Lake Erie Tapehouse","5561 Liberty Ave","44089","Vermilion","OH","USA"
"2018942865","USFL101215778","DBUSA","1114000982575511140009825755","Klasiq Ink","2121 Corporate Square Blvd Ste 132","32216","Jacksonville","FL","USA"
"2029159670","USCT100118266","DBUSA","1113254962780512438253418786","Tri Towne Power Equipment","22 Whittlesey Brook Rd","06417","Deep River","CT","USA"
"2027984351","USPA100943312","DBUSA","1114001524374311140015243743","Simplilearn Americas","800 N 2nd St","17102","Harrisburg","PA","USA"
"2009424252","USOH100294931","DBUSA","1113255035073111132550350731","Creative Mortgage Services","2708 Sawbury Blvd","43235","Columbus","OH","USA"
"0119229976","USAL100375393","DnB","008118865","World Acceptance","1020 Schillinger Rd S C","36695","Mobile","AL","USA"
"2033798253","USFL100559333","DBUSA","1113254821921712450033783525","Lug Man","5875 Mining Ter Ste 205","32257","Jacksonville","FL","USA"
"2005855218","USNJ100178490","DBUSA","1114000339485912438248967956","Microtech Computers","3572 John F Kennedy Blvd","07307","Jersey City","NJ","USA"
"2003752223","USIN100063013","DBUSA","1113255102317212438244097543","Dart Electric","5202 E 24th St","46218","Indianapolis","IN","USA"
"2011790536","USCA101320942","DBUSA","1114000012714612450000127146","Chase","1299 4th St Ste 100","94901","San Rafael","CA","USA"
"0240752316","USCA100987107","DnB","129641205","Gamez, Robert L, CPA","920 Glenneyre St","92651","Laguna Beach","CA","USA"
"2035158998","USMD101377511","DBUSA","1114002090729311140020907293","Amg Of Maryland","905 Primrose Rd Apt 102","21403","Annapolis","MD","USA"
"0179232561","USGA100889137","DnB","068121450","Cumming GA Podiatry","102 Mary Alice Park Rd","30040","Cumming","GA","USA"
"2033556459","USIL100178479","DBUSA","1114000116208312450033585600","Tagore Technology","5 E College Dr Ste 200","60004","Arlington Heights","IL","USA"
"2020384916","USPA100533271","DBUSA","1114001098082611140010980826","Northwood Baptist Chapel","402 Hancock St","16686","Tyrone","PA","USA"
"0127949491","USWI100480476","DnB","016838380","JRS Insurance","2893 Main St","53120","East Troy","WI","USA"
"0209107049","USKS100234241","DnB","097995938","Arnold V Mueller M D","2737 SW Bluestem Dr","66614","Topeka","KS","USA"
"0897563549","USAK100111482","DnB","786452438","Sourdough Express","13310 Vern Dr","99516","Anchorage","AK","USA"
"0969978983","USCA103261573","DnB","858867872","Avon, Mark R, MD","5201 N Cayon Rd","94583","San Ramon","CA","USA"
"2024859798","USNH100129844","DBUSA","1114001309030711140013090307","Beauty By Design","28 S Main St","03301","Concord","NH","USA"
"2010168268","USNJ100312871","DBUSA","1113255280179611132552801796","Mddc","1 Borgata Way","08401","Atlantic City","NJ","USA"
"0180493530","USCA103026104","DnB","069382419","Digital Video Creations","4360 Viewridge Ave","92123","San Diego","CA","USA"
"2035120543","USAZ100594946","DBUSA","1114002088236611140020882366","Gb Remodeling","3815 N 27th Ave Lot 57","85017","Phoenix","AZ","USA"
"2020550611","USMD100361518","DBUSA","1114001053408412450012979083","Christopher Zajac","9649 Belair Rd Ste 200","21236","Nottingham","MD","USA"
"0233925528","USFL100999705","DnB","122814417","Prestige Mobile Imaging","4100 N Powerline Rd","33073","Pompano Beach","FL","USA"
"2028480281","USCA102581667","DBUSA","1114001577495912450031385946","Elizabeth O Marquart MD","36485 Inland Valley Dr","92595","Wildomar","CA","USA"
"0166283122","USOH100888982","DnB","055172011","Miriam Boraz-Paponetti","3601 Green Rd","44122","Beachwood","OH","USA"
"2034462308","USOH100142032","DBUSA","1113255434124312450035887241","State Farm Insurance","581 High St Ne","44483","Warren","OH","USA"
"0287881758","USNJ100741667","DnB","176770647","Alapatt P Thomas","9 Manor Dr","07059","Warren","NJ","USA"
"2004085492","USOK100049968","DAT_uberall","","","406 South Boulder Avenue","74103","Tulsa","OK","USA"
"2001907161","USFL100113523","DBUSA","1113254623646012438210635496","Deborah C Drylie","4719 Nw 53rd Ave","32653","Gainesville","FL","USA"
"2033628393","USMO100258675","DBUSA","1114000708853412450033652382","Columbia Real Estate","2100 W Broadway","65203","Columbia","MO","USA"
"01048856135","USGA100090031","DnB","937745024","Kt Nails","736 Ponce De Leon Ave Ne","30306","Atlanta","GA","USA"
"2006608132","USNH100034220","DBUSA","1113400357616211134003576162","Claims Bureau NE","7 Autumn Ln","03054","Merrimack","NH","USA"
"0897267199","USWI100182462","DnB","786156088","Snap Fitness","790 Cornerstone Xing","53185","Waterford","WI","USA"
"0141206059","USCA103074948","DnB","030094948","Law Offices Of Zigler L Michael","150 Spear St","94105","San Francisco","CA","USA"
"2003523229","USIL100125383","DBUSA","1113254919683112438247681554","Kim's Beauty","1512 W Market St Ste 300","61701","Bloomington","IL","USA"
"2001611546","USPA100066985","DBUSA","1113254522205511132545222055","Interior Preservations","840 2nd Street Pike","18954","Richboro","PA","USA"
"0198990780","USWA100025346","DnB","087879669","Mia & Maxx Hair Studio","1 Bellis Fair Pkwy","98226","Bellingham","WA","USA"
"0142013158","USCA102973488","DnB","030902047","Kim Smith Law Offices","1620 N Placentia Ave","92870","Placentia","CA","USA"
"2028347783","USIL100899570","DBUSA","1114001566160712450031595491","Theodore Dimoulis","818 N 19th Ave","60160","Melrose Park","IL","USA"
"0941370692","USIL100714989","DnB","830259581","Industrial Resources Council","1416 Greenlake Dr","60502","Aurora","IL","USA"
"2005889352","USMO100109592","DBUSA","1113255468429612438246574639","Hilltop Day Care Center","6155 W Florissant Ave","63136","Saint Louis","MO","USA"
"2035942225","USWA100724607","DBUSA","11140019966820212845763","Oasis Medical","301 Union St Unit 21502","98111","Seattle","WA","USA"
"2032960653","USMI100840707","DBUSA","1114001824204112450033207337","Sultry Beauty","11400 College St","48205","Detroit","MI","USA"
"2029380446","USCA101086628","DBUSA","1113255078125712450030753976","Maple Village School","4017 E 6th St","90814","Long Beach","CA","USA"
"2032903245","USPA100230500","DBUSA","1113254365477412438247050244","Interstate Termite & Pest","439 Ramsey Ave Ste D","17201","Chambersburg","PA","USA"
"2030290886","USOH100909269","DBUSA","1114001668278611140016682786","HEART Food Pantry","6475 E Main St Ste 101","43068","Reynoldsburg","OH","USA"
"2033792164","USFL100357883","DBUSA","1113254371693612450033734806","J & J Timber","17900 Sorrells Rd","32438","Fountain","FL","USA"
"2013372359","USCA101503857","DBUSA","1113256998788812438243217225","Chips Concrete Pumping","28588 N Shore Rd","92352","Lake Arrowhead","CA","USA"
"2013306839","USCT100169338","DBUSA","1113400249552612440001750389","Danbury Sports Dome","2 Shelter Rock Ln","06810","Danbury","CT","USA"
"2000203339","USTX100012175","DBUSA","1113254180131912438202563996","Julie A Johnson","3601 4th St Stop 8321","79430","Lubbock","TX","USA"
"2033525925","USCA103550213","DBUSA","1114001984471811140019844718","E Builderz","14416 Victory Blvd Ste 104","91401","Van Nuys","CA","USA"
"2018906802","USNY101016445","DBUSA","1113255509895912438249065221","Minelli Construction","312 E Main St Unit A","11772","Patchogue","NY","USA"
"2001598286","USAZ100029861","DBUSA","1113254622992012438210626985","Joan M Kohr MD","1520 S Dobson Rd","85202","Mesa","AZ","USA"
"0169389467","USFL101952693","DnB","058278356","Vitalounge","1225 Belvedere Rd","33405","West Palm Beach","FL","USA"
"2019975747","USTX101382993","DBUSA","1114001025373011140010253730","Etter Welding","","79029","Dumas","TX","USA"
"2005537362","USCO100102853","DBUSA","1113255386115312438247465122","J & T Country Feeds","4835 W 10th St Unit A","80634","Greeley","CO","USA"
"2007128533","USCA100800947","DBUSA","1113254474629212438247369464","John Douglas Construction","526 Stanley Ave","92026","Escondido","CA","USA"
"2004965173","USNJ100152811","DBUSA","1114000254413112450013527919","Running Water Creations","170 Victoria Ave","08051","Mantua","NJ","USA"
"2031699102","USIL101151807","DBUSA","1114001724164611140017241646","Babstel Travel Agency","1655 S Blue Island Ave","60608","Chicago","IL","USA"
"2024098231","USOH100375494","DBUSA","1114000091754811140000917548","Circleville Police Department","113 Pinckney St","43113","Circleville","OH","USA"
"2027294846","USCT100277975","DBUSA","1114001383258412450031035758","Ceco","23 Old Windsor Rd","06002","Bloomfield","CT","USA"
"2022810685","USTX100512441","DBUSA","1114000533856212450029454449","Rawe Yates Media Group","1901 W Loop 289","79407","Lubbock","TX","USA"
"2035963717","USAR100044075","DBUSA","1113255253131312450039781812","Metal Building Supply","19601 N Mount Olive Rd","72736","Gravette","AR","USA"
"2002174632","USGA100061037","DBUSA","1113254722357312438211924915","Stewart, Walter E","1130 Falstaff Dr","30076","Roswell","GA","USA"
"0142323134","USGA100867707","DnB","031212023","Inland Commercial Real Estate","4340 E West Conectr SE","30082","Smyrna","GA","USA"
"2012461163","USFL100790868","DBUSA","1114000028702311140000287023","Hughes Network Systems","","32301","Tallahassee","FL","USA"
"0721488479","USTX100355851","DnB","610377368","Jimbo's Pizza","304 E Walnut St","75009","Celina","TX","USA"
"2008319433","USPA100341703","DBUSA","1113254727280112438211985927","Alan Berger Sent","525 Jamestown St Ste 104","19128","Philadelphia","PA","USA"
"2010232152","USWI100186076","DBUSA","1113255257540312438241484167","Arby's","8321 Murphy Dr","53562","Middleton","WI","USA"
"2018954287","USCA102105755","DBUSA","1114000985513411140009855134","Ron Thunderwood Studios","11113 Moorpark St Apt 206","91602","North Hollywood","CA","USA"
"2007729939","USAK100028036","DBUSA","1113254546719911132545467199","Gator Construction","PO Box 672566","99567","Chugiak","AK","USA"
"2005025486","USGA100144228","DBUSA","1113257420842512438248392982","L V Salon","4750 Alabama Rd Ne Ste 150","30075","Roswell","GA","USA"
"2022349901","USMN100360884","DBUSA","1114001233210311140012332103","Inner Beauty Med Spa","1630 101st Ave Ne","55449","Minneapolis","MN","USA"
"2009965865","USCA102333442","DBUSA","1113255167326711132551673267","Casa Riviera","5800 Armada Dr","92008","Carlsbad","CA","USA"
"2002997466","USTX100202432","DBUSA","1113254787712212438241681946","At Your Feet","440 Highway 59 Loop S Ste C","77351","Livingston","TX","USA"
"2016839079","USTX101526826","DBUSA","1114000859706512450021564873","Salem Noha Adel MD","920 Frostwood Dr Ste 600","77024","Houston","TX","USA"
"2023051102","USVA100505231","DBUSA","1114001244198012450029358507","Eas Consulting Group","1700 Diagonal Rd Ste 750","22314","Alexandria","VA","USA"
"01069068818","USAL100153607","DnB","957957707","Respess, Michael Appraisals","2001 Le Bron Ave","36106","Montgomery","AL","USA"
"2003924435","USWI100073314","DBUSA","1113255158755212438253626789","Universal Heating & Cooling","10700 W Venture Dr Ste D1","53132","Franklin","WI","USA"
"2010462850","USAL100151607","DBUSA","1113255304586312438245532370","Foundations Unlimited of Alabama","731 3rd Ave N","35203","Birmingham","AL","USA"
"2009014622","USTX100635605","DBUSA","1113254989343612438242864059","CARQUEST Auto Parts","105 W 3rd St","77859","Hearne","TX","USA"
"2030632586","USTX101142354","DBUSA","1114000836637512450032138077","Walden Yacht Club","13101 Melville Dr","77356","Montgomery","TX","USA"
"2024317687","USNJ100159220","DBUSA","1113254403256111132544032561","Weber's Garage","1815 State Route 35","08879","South Amboy","NJ","USA"
"2025687515","USKS100147877","DBUSA","1114000802167012450030731786","Curo Health Services","5375 Sw 7th St Ste 500","66606","Topeka","KS","USA"
"2008756088","USOR100123511","DAT_uberall","","","5401 Commercial Street Southeast","97306","Salem","OR","USA"
"2016925966","USGA100533270","DBUSA","1114000870703412450021669659","Osemelu Aburime","1120 15th St","30912","Augusta","GA","USA"
"2001991729","USIL100069083","DBUSA","1113254635497812438210784549","Luchetti Thomas D","6838 E State St","61108","Rockford","IL","USA"
"2020504041","USOH100291455","DBUSA","1113254982479812450028829669","Edward Jones - Financial Adviser: Jeff Hite","356 E Main St","44904","Mansfield","OH","USA"
"2028042736","USOH100721931","DBUSA","1114001532193311140015321933","Focus On Sexual Health","244 Dayton St","45011","Hamilton","OH","USA"
"2009841579","USPA100408708","DBUSA","1113255131491312438242312039","Bob Kensil","742 E Tioga St","19134","Philadelphia","PA","USA"
"2030849883","USMO100559485","DBUSA","1114001703718612450032220019","Kollmeyer Family Farm","2605 Dogwood Bluff Dr","65109","Jefferson City","MO","USA"
"2027104203","USCA102467205","DBUSA","1114001462814011140014628140","LASHIOUS","1111 J St Ste G-109","95354","Modesto","CA","USA"
"2035946606","USSC100468909","DBUSA","1114002199402211140021994022","Lawson Archie Brittany","36 Phil Jar Ln","29010","Bishopville","SC","USA"
"0251592640","USNH100152343","DnB","140481529","Appledore Plumbing Heating & F","88 Bunker Hill Ave","03885","Stratham","NH","USA"
"0960262591","USHI100132481","DnB","849151480","Mika Massage","1608 Kalakaua Ave","96826","Honolulu","HI","USA"
"0127278920","USIL101013138","DnB","016167809","Felty's Automotive","733 Salem Rd","62864","Mount Vernon","IL","USA"
"2020994274","USNJ100572473","DBUSA","1113255292768311132552927683","International Check Cashing Services","337 Talmadge Ave","08805","Bound Brook","NJ","USA"
"0193603868","USGA101033819","DnB","082492757","Amelia Bay","1132 Manning Farms CT","30338","Atlanta","GA","USA"
"2030497371","USKS100111385","DBUSA","11132571487449195031331","Exhaust Pros","796 N West St","67203","Wichita","KS","USA"
"2009005977","USMN100156583","DBUSA","1113254902599811132549025998","U-Haul","501 5th St S","56520","Breckenridge","MN","USA"
"0128925049","USPA101134567","DnB","017813938","Levitz","2650 Macarthur Rd","18052","Whitehall","PA","USA"
"","USOH100997505","DAT_uberall","","","1343 North Fountain Boulevard","45504","Springfield","OH","USA"
"2006963484","USNY100426800","DBUSA","1114000235482911140002354829","Boemia Bar & Lounge","18411 Jamaica Ave","11423","Hollis","NY","USA"
"2035103099","USAZ100594183","DBUSA","1114002028948411140020289484","Ryleigh Wealth Management","2532 N 4th St","86004","Flagstaff","AZ","USA"
"2005089102","USTX100353428","DBUSA","1113255373982811132553739828","True Value Hardware","101 E 2nd St","77964","Hallettsville","TX","USA"
"","USSC100425455","DAT_advice","","","1792 S. Lake Dr.","29073","Lexington","SC","USA"
"2003030592","USKS100029225","DBUSA","1113254838086412438251833317","Seiwert Brothers","1199 N Conway Springs Rd","67031","Conway Springs","KS","USA"
"0273767197","USPA100253740","DnB","162656086","Michael R Smith","59 Crest View Ln","17325","Gettysburg","PA","USA"
"0148002124","USGA100897578","DnB","036891013","Heart & Hands of Albany","2025 Palmyra Rd","31701","Albany","GA","USA"
"2025814487","USNJ100467316","DBUSA","1114000837789412450030733583","Empanadas Cafe","123 Washington St","07030","Hoboken","NJ","USA"
"2004826884","USNY100965165","DBUSA","1113256847323912450014018103","Angelides &","2360 Steinway St","11105","Astoria","NY","USA"
"0912720459","USCO101450872","DnB","801609348","Summit Ford","0200 Buffalo CT","80498","Silverthorne","CO","USA"
"2031512729","USFL100591097","DBUSA","1113254986261412450029367732","Levi's Factory Outlets","5461 Factory Shops Blvd","34222","Ellenton","FL","USA"
"2035111704","USAZ100593390","DBUSA","1114002060783711140020607837","Infinity Counseling Center","3481 W 8th St","85552","Thatcher","AZ","USA"
"2028188990","USOH100718184","DBUSA","1114001546649512450031267829","Kenneth W House DO","48462 Bell School Rd Ste C","43920","East Liverpool","OH","USA"
"2007419848","USMN100128019","DBUSA","1114000442613711140004426137","Scope Lending Group","2121 Nicollet Ave","55404","Minneapolis","MN","USA"
"0946573341","USNC100830707","DnB","835462230","Boulevard West","104 W Main St","27520","Clayton","NC","USA"
"0172908392","USVA100618715","DnB","061797281","C & C Electric Services","515 N 13th St","23298","Richmond","VA","USA"
"2026536877","USCO100047300","DBUSA","1113254735066712450019654082","Physical Therapy & Balance Centers","7622 Mclaughlin Rd","80831","Peyton","CO","USA"
"2034235710","USFL102302161","DBUSA","1114001894594812450033057702","Bhruki Serives","8844 Beacon Lakes Dr Apt 206","33615","Tampa","FL","USA"
"2032776723","USNJ100900520","DBUSA","1114001844537511140018445375","Law Office Michele M Loggi","2020 New Rd","08221","Linwood","NJ","USA"
"2010567447","USMO100197968","DBUSA","1113255337697812438242268497","Blue Beetle Pest Control","6301 Main St Ste B","64113","Kansas City","MO","USA"
"2027621781","USVT100058381","DBUSA","1114001446917912450031142679","Harriott Meyer Shea MD","246 Granger Rd Ste 1","05641","Barre","VT","USA"
"0276222539","USNV100215953","DnB","165111428","Wycoff B Misty","802 W 2nd St","89503","Reno","NV","USA"
"2021340501","USCA102255360","DBUSA","1114001180380711140011803807","John Waltrips Music Center","1207 S Baldwin Ave","91007","Arcadia","CA","USA"
"2023365435","USND100012942","DBUSA","1113254318408512450030010693","Property Management Solutions","PO Box 862","58107","Fargo","ND","USA"
"2012482625","USTX100887319","DBUSA","1114000422693311140004226933","Arabella","4521 San Felipe St","77027","Houston","TX","USA"
"2035745929","USTX102580455","DBUSA","1114002100074411140021000744","Pirulin Popsicles","2201 W Berry St","76110","Fort Worth","TX","USA"
"2035452824","USCA103734094","DBUSA","1114002155209411140021552094","Tumbleweed Express Antiques & Collectibles","3739 W Ramsey St","92220","Banning","CA","USA"
"2012139231","USMO100354593","DBUSA","1114000006063111140000060631","ARC Physical Therapy +","1711 W Battlefield St Ste Q","65807","Springfield","MO","USA"
"2024003157","USSC100191699","DBUSA","1113257274129612450029834831","H & L Marine","3218 Highway 72 221 E","29649","Greenwood","SC","USA"
"2001647532","USMS100012020","DBUSA","1113254638242012440001053411","J David Richardson MD","4500 I 55 N","39211","Jackson","MS","USA"
"2016758194","USVA100421677","DBUSA","1114000854364612450021513644","Stinett Teresa","4262 S Amherst Hwy","24572","Madison Heights","VA","USA"
"2021378841","USFL101174032","DBUSA","1114001195232111140011952321","Mortgage Processing","5401 S Kirkman Rd","32819","Orlando","FL","USA"
"0194553141","USPA101187865","DnB","083442030","Ortlieb's","847 N 3rd St","19123","Philadelphia","PA","USA"
"2007145909","USCA100802744","DBUSA","1113254444681511132544446815","Cameo Casting","","90245","El Segundo","CA","USA"
"2032343532","USDE100071026","DBUSA","1114001469036712450032953741","Penelope C. Tsilimidos, RPH","3300 Brandywine Pkwy","19803","Wilmington","DE","USA"
"2033590739","USGA100378273","DBUSA","1114000170997712450033929353","Preferred Property Preservations","2839 Da Vinci Blvd","30034","Decatur","GA","USA"
"2015596222","USPA100631304","DBUSA","1114000830400311140008304003","Onhealthcare Dental","951 Brodhead Rd","15108","Coraopolis","PA","USA"
"01051507027","USCA102822841","DnB","940395916","Reynaâ€™s Beauty Salon","1616 W Carson St","90501","Torrance","CA","USA"
"0137938237","USNY101513458","DnB","026827126","Police New York State","RR 31","13027","Baldwinsville","NY","USA"
"2002755248","USTX100184115","DBUSA","1113255045748112438254023490","Walgreens","8045 N Loop Dr","79915","El Paso","TX","USA"
"01060227648","USMS100202505","DnB","949116537","Kokomo Baptist Church","68 Kokomo Rd","39643","Kokomo","MS","USA"
"2012985814","USNC100369803","DBUSA","1114000589757711140005897577","Jerb Flooring","110 E Johnson St","27513","Cary","NC","USA"
"2004684659","USMN100084947","DBUSA","1113255219546511132552195465","City & County Employees Credit Union","221 E Clark St","56007","Albert Lea","MN","USA"
"2019570236","USMA100449457","DBUSA","1114001001590611140010015906","Optasite","446 Main St","01608","Worcester","MA","USA"
"0200423449","USNM100150912","DnB","089312338","Sugar & Spice Cake Pops","6601 Tierra Luna CT NW","87120","Albuquerque","NM","USA"
"2000443891","USFL100023319","DBUSA","1113254229881512438203301745","Lisa Avery","7400 Docs Grove Cir","32819","Orlando","FL","USA"
"0151947260","USNM100154993","DnB","040836149","Eddie's Handy Man Services","2300 Durand Rd SW","87105","Albuquerque","NM","USA"
"01060347860","USFL101627959","DnB","949236749","McNair Computer Arts","2760 Nordman Ave","32168","New Smyrna Beach","FL","USA"
"0196322392","USAZ100359426","DnB","085211281","Newview Moving","2055 S Power Rd","85209","Mesa","AZ","USA"
"2035074965","USIN100557052","DBUSA","1114002046924911140020469249","Oasis Mobile Repair","6567 Rocky Hill Rd","47460","Spencer","IN","USA"
"2003285010","USMA100339904","DBUSA","1113255087423012450016532302","Our Ladys Guild House Convent","20 Charlesgate W","02215","Boston","MA","USA"
"0186565378","USIN100368992","DnB","075454267","Community Reach","2920 N Keystone Ave","46218","Indianapolis","IN","USA"
"2007396409","USFL100476556","DBUSA","1113254497405412438250305609","Pensacola FL Trading","8730 Gulf Beach Hwy","32507","Pensacola","FL","USA"
"2033720008","USAR100041839","DBUSA","1113255433117812450033686225","Searcy Battery Warehouse","2810 E Race Ave","72143","Searcy","AR","USA"
"2015391515","USMN100265345","DBUSA","1114000799582211140007995822","Turner Brian","604 13th Ave Nw","55944","Kasson","MN","USA"
"2005613026","USMN100099068","DBUSA","1114000041528412450014275143","Newport Massage","303 21st St Ste 134","55055","Newport","MN","USA"
"0731235140","USCA102889192","DnB","620124029","Alice Griffith Opportunity Center","2525 Griffith St","94124","San Francisco","CA","USA"
"2003849536","USGA100109895","DBUSA","1113255045931112438242326596","The Body Shop","155 Newman Dr","31520","Brunswick","GA","USA"
"0218433510","USMN100500795","DnB","107322399","Lustre Skin Care","4456 Nicollet Ave","55419","Minneapolis","MN","USA"
"2028713405","USWA100515595","DBUSA","1114001610433511140016104335","Revenue Department","630 N Chelan Ave Ste B3","98801","Wenatchee","WA","USA"
"0143875700","USGA101041980","DnB","032764589","Thompson Bruce","155 N Main Ave","31822","Pine Mountain","GA","USA"
"01052229420","USNY101458144","DnB","941118309","Pro Nails","25 West Rd","11733","East Setauket","NY","USA"
"2001216701","USCA100143055","DBUSA","1113254504785112438251648804","San Dimas Jewelry Mart","490 W Arrow Hwy Ste G","91773","San Dimas","CA","USA"
"2028300067","USFL101563880","DBUSA","1114001583619812450031408633","Maitry D Patel DMD","19007 Bruce B Downs Blvd","33647","Tampa","FL","USA"
"2033228669","USFL102206139","DBUSA","1114001863171012450033083139","Royal Promotions","3491 Gandy Blvd N Ste 205","33781","Pinellas Park","FL","USA"
"2033451362","USTX100622083","DBUSA","1113254739456012450033609122","Kinder Clinic","303 Jackson Hill St","77007","Houston","TX","USA"
"2033138665","USNY101885152","DBUSA","1114001927512011140019275120","Two Roses Construction","49 Central Pkwy","11743","Huntington","NY","USA"
"2003649447","USMI100102058","DBUSA","1113255384490412438247210347","J BS Auto Sales & Late Model Salvage","10660 Carleton Rd","49235","Clayton","MI","USA"
"2024635906","USGA100684573","DBUSA","1114001302500212450030376267","Access Pro Medical","3633 Wheeler Rd Ste 300","30909","Augusta","GA","USA"
"2009602312","USCO100179956","DBUSA","1113255161688312438247217292","Jcomm","7851 S Elati St Ste 200","80120","Littleton","CO","USA"
"2012203748","USNE100085178","DBUSA","1114000251888412450013511608","Capital City Trenching","2141 W Plum St","68522","Lincoln","NE","USA"
"2031901071","USKY100092421","DBUSA","1113254432149112450024994693","Brink's","10811 Plantside Dr","40299","Louisville","KY","USA"
"2011430469","USNC100324858","DBUSA","1113256823592012438241071709","All Colors Painting","","28273","Charlotte","NC","USA"
"0249158106","USTN100506355","DnB","138046995","Wok & Roll","379 Meigs Dr","37128","Murfreesboro","TN","USA"
"2034737196","USMT100068216","DBUSA","1113254609672112450039412555","Express Care","435 S Crystal St Ste 200","59701","Butte","MT","USA"
"2015615219","USFL101018764","DBUSA","1114000837000411140008370004","Red Pizza Truck","9004 Nw 137th St","34482","Ocala","FL","USA"
"2027914768","USCA102575682","DBUSA","1114001562902112450031589706","Colin Bacorn","4860 Y St","95817","Sacramento","CA","USA"
"0135585976","USWA100577020","DnB","024474865","Leach and Associates","5521 N Alberta St","99205","Spokane","WA","USA"
"2009833167","USPA100408747","DBUSA","1113255110476012438246407535","Headstrong","1585 Big Oak Rd","19067","Morrisville","PA","USA"
"0916983198","USMI100872366","DnB","805872087","Bellacinos Pizza & Grinders","4301 Orchard Lake Rd","48323","West Bloomfield","MI","USA"
"0226603133","USFL102018251","DnB","115492022","Whale","83412 Overseas Hwy","33036","Islamorada","FL","USA"
"2004390258","USSD100015409","DBUSA","1113255123613812438243969769","Cup O Joy","319 Dakota Dunes Blvd Ste A","57049","North Sioux City","SD","USA"
"2033416096","USNJ100912881","DBUSA","1114001953605211140019536052","Cs Systems","251 Tomlinson Mill Rd","08053","Marlton","NJ","USA"
"2035153536","USMD101379576","DBUSA","1114002074428111140020744281","Anointed Care Team","2110 Crain Hwy","20601","Waldorf","MD","USA"
"2028161058","USCA102590768","DBUSA","1114001542921612450031715572","Emily L Daykin-Clark MD","4647 Zion Ave","92120","San Diego","CA","USA"
"2028400237","USCA102598437","DBUSA","1114001547291012450031270317","Jones, Bonita L MD: Bonita L Jones, MD","4601 Dale Rd","95356","Modesto","CA","USA"
"2035236745","USFL102376159","DBUSA","1114002091130311140020911303","Deerfield Beach Long Distance Movers","101 N Federal Hwy","33441","Deerfield Beach","FL","USA"
"2028274357","USCA102395476","DBUSA","1114001594216312450031728698","UC San Diego","9500 Gilman Dr","92093","La Jolla","CA","USA"
"2026478518","USKS100206411","DBUSA","1114001424610211140014246102","KRBB","9323 E 37th St N","67226","Wichita","KS","USA"
"0956276376","USLA100407923","DnB","845165265","H&R Block","9954 Lake Forest Blvd","70127","New Orleans","LA","USA"
"2016928413","USLA100245846","DBUSA","1114000870958612450021672090","Tanner Jr Charles W MD","1285 Pine St Ste 104","71001","Arcadia","LA","USA"
"2010932582","USOR100152040","DBUSA","1113255442352112438251650478","Sandpiper","1815 Nw Harbor Ave Ofc","97367","Lincoln City","OR","USA"
"2032529547","USTX102364408","DBUSA","1114001877640611140018776406","San Antnio Frgdire Factory Crtif","534 Fair Ave","78223","San Antonio","TX","USA"
"0208423993","USKS100245689","DnB","097312882","New City Life Church","826 E Monroe St","67579","Sterling","KS","USA"
"2017545266","USIA100196572","DBUSA","1114000933910811140009339108","D&Y Properties","1739 210th St","50595","Webster City","IA","USA"
"2024106213","USFL101211167","DBUSA","1114000981415612450029871756","Government Supervisors Assoc Flda","2701 Ponce De Leon Blvd","33134","Miami","FL","USA"
"2029286212","USNH100138274","DBUSA","1114001604839411140016048394","Coleman Concrete","","03867","Rochester","NH","USA"
"2029543992","USNM100040410","DBUSA","1113256867748112450021943983","Associated Security Industries","1221 S Saint Francis Dr Ste B","87505","Santa Fe","NM","USA"
"2007738228","USSC100109716","DBUSA","1113254609146612438210452846","Ashley S Heslop Attorney","1901 Main St","29201","Columbia","SC","USA"
"2027064882","USAL100331162","DBUSA","1114001455030111140014550301","Sylvester Attorney Rod At Law","109 S Cotton St","36420","Andalusia","AL","USA"
"2033069882","USFL102169371","DBUSA","1114001880970512450033182788","Sary Noncent","6 N Eustis St","32726","Eustis","FL","USA"
"2003128511","USNY100197949","DBUSA","1113255194657712450019935763","Alter Eleanor B","1301 Avenue Of The Americas","10019","New York","NY","USA"
"","USPA100900948","DAT_advice","","","1364 Welsh Road","19454","North Wales","PA","USA"
"2035695089","USNE100096482","DBUSA","1113254696368112450022272862","Olsson Associates","2111 S 67th St Ste 200","68106","Omaha","NE","USA"
"2032614311","USPA101234855","DBUSA","1114001881102411140018811024","Merrill Lynch Wealth Management","600 Baltimore Dr","18702","Wilkes Barre","PA","USA"
"0224279751","USFL101973981","DnB","113168640","Art Deco District Tours","1001 Ocean Dr","33139","Miami Beach","FL","USA"
"2035026687","USMI100848063","DBUSA","1113255437224812450044547343","Paladin Attachments","2800 Zeeb Rd Ste A","48130","Dexter","MI","USA"
"0224253558","USCO100090686","DnB","113142447","Bueno Food Sales","1433 Meade St","80204","Denver","CO","USA"
"2033640643","USNC100926687","DBUSA","1114002001473011140020014730","Wild Birds Unlimited","134 Town Center Dr","28117","Mooresville","NC","USA"
"2033530607","USCA103545159","DBUSA","1114001999852811140019998528","Senior Living","8417 Mission Dr","91770","Rosemead","CA","USA"
"2031870764","USWI100189381","DBUSA","1113255331288212450025539808","Dollar General","902 W Main St","53963","Waupun","WI","USA"
"2009659769","USFL100614457","DBUSA","1113254919213112438241060721","All About You Travel Unlimited","1240 Us Highway 1 Ste 6","32955","Rockledge","FL","USA"
"2003736764","USAZ100065600","DBUSA","1113255097078212438241193959","A-Magnum Electric","8912 E Southern Ave","85209","Mesa","AZ","USA"
"2035084694","USIN100557756","DBUSA","1114002099568911140020995689","Brian Evans --Metzger Property Services","1875 N 400 E","46941","Lagro","IN","USA"
"0182436646","USCA103187715","DnB","071325535","A Barber's Lounge","73010 El Paseo","92260","Palm Desert","CA","USA"
"2028729822","USMO100442795","DBUSA","1114001606551011140016065510","Smart Body 24/7 Health & Fitness","4754 Mid Rivers Mall Dr","63376","Saint Peters","MO","USA"
"2013243917","USWY100033177","DBUSA","1113256807105211132568071052","Advanced Laser Graphics","216 W 17th St","82001","Cheyenne","WY","USA"
"2011144976","USNY100679311","DBUSA","1113257420868611132574208686","L & W Chemists","10 Empire Ct","11746","Huntington Station","NY","USA"
"2021049671","USNJ100572912","DBUSA","1113257785261411132577852614","Symetrie Hair Designs","101 Ellis St","08033","Haddonfield","NJ","USA"
"2033222212","USDE100096284","DBUSA","1114001906749812450033468392","Marshalls Home & Lawn Services","18054 Robinsonville Rd","19958","Lewes","DE","USA"
"2023035565","USMI100594795","DBUSA","1114001264886011140012648860","Landgraf Law Office","19 S 3rd St","49120","Niles","MI","USA"
"2009884459","USDE100031131","DBUSA","1113255215382212438241287954","American Water Well Systems","20846 Camp Rd","19933","Bridgeville","DE","USA"
"2034501190","USVA100008528","DBUSA","1113254249315612450040301080","Pediatrics-U Va","1221 Lee St","22908","Charlottesville","VA","USA"
"0712148327","USTX102154441","DnB","601037216","Ellens Hallmark","3344 Highway 6","77478","Sugar Land","TX","USA"
"2033548649","USPA100399182","DBUSA","1113255132830812450033822236","Your Loving Choices","904 Market St","17815","Bloomsburg","PA","USA"
"2021059101","USFL101221584","DBUSA","1114000985950512450029087562","Itensity Dancers Studio","15507 Bull Run Rd","33014","Hialeah","FL","USA"
"0267199217","USMA100642580","DnB","156088106","Tedeschi Food Shops","105 Trowbridge Rd","02532","Buzzards Bay","MA","USA"
"2033085353","USTX102390415","DBUSA","1114001949708211140019497082","Cho Myung","9602 Fm 1960 Bypass Rd W","77338","Humble","TX","USA"
"0145599127","USMT100182172","DnB","034488016","Rosie's","204 Park St","59030","Gardiner","MT","USA"
"2032562460","USCA103474231","DBUSA","1114001846064811140018460648","Zinqu San Diegoo","2101 Kettner Blvd","92101","San Diego","CA","USA"
"2031002307","USNE100193892","DBUSA","1114001711091512450032293748","Becker Family Farm","6 Driftwood Dr","68601","Columbus","NE","USA"
"0217342006","USPA101033849","DnB","106230895","Country Thyme","206 Macintosh Way","17201","Chambersburg","PA","USA"
"0945064499","USIL101052860","DnB","833953388","Jr Auto Repair","1516 N Lewis Ave","60085","Waukegan","IL","USA"
"2015543832","USMA100371332","DBUSA","1114000826168911140008261689","Noel Properties","85 Mcclellan Rd","01590","Sutton","MA","USA"
"2004985527","USAL100070876","DBUSA","1113257332501612438247330818","J Leko Furniture Maker","5048 Chancel Dr Se","35802","Huntsville","AL","USA"
"2025242630","USTN100414710","DBUSA","1114001351152511140013511525","Pet Au Pair","","38105","Memphis","TN","USA"
"2005513541","USNJ100167150","DBUSA","1114000006845511140000068455","Baby Pillow Store","214 Paint Island Spring Rd","08510","Millstone Township","NJ","USA"
"0187526935","USCA103630271","DnB","076415824","Base Color Bar","1157 S Bundy Dr","90049","Los Angeles","CA","USA"
"0218222777","USOR101522973","DnB","107111666","Charles Schwab","975 Oak St","97401","Eugene","OR","USA"
"2009569088","USFL100609773","DBUSA","1113254893812511132548938125","Benjamin Franklin Plumbing","6759 Mauna Loa Blvd","34241","Sarasota","FL","USA"
"0261861528","USPA101037907","DnB","150750417","Transformation Electric","636 Fisher Rd","16002","Butler","PA","USA"
"2010352765","USNC100291396","DBUSA","1113255263107012438247524072","Circle K","621 Green Valley Rd","27408","Greensboro","NC","USA"
"0149880358","USCA102834216","DnB","038769247","Wow Smiles","1791 Marlow Rd","95401","Santa Rosa","CA","USA"
"2005841564","USFL100356749","DBUSA","1113254354977812438244237552","Delux Marble & Granite","880 Nw 57th St","33309","Fort Lauderdale","FL","USA"
"0174276995","USAZ100444166","DnB","063165884","Perry's Decorative Finishes L.L.C","1717 S Dorsey Ln","85281","Tempe","AZ","USA"
"0176429241","USMA100601386","DnB","065318130","Todd R Moreschi","34 N Liberty St","01949","Middleton","MA","USA"
"2023980179","USMA100332810","DBUSA","1114000512079012450030143909","Gemma's Cafe","7 Hampshire St","01844","Methuen","MA","USA"
"2000446849","USIL100016796","DBUSA","1113254249463712438203661914","George F Dietz MD","212 S Scoville Ave","60302","Oak Park","IL","USA"
"2035885787","USVA100802362","DBUSA","1114002017450011140020174500","Central Mechanical","266 Albert Ct","22901","Charlottesville","VA","USA"
"0162508834","USAZ100435928","DnB","051397723","Vtt Testing","2581 N Highway 95","85344","Parker","AZ","USA"
"2002351182","USNJ100073462","DBUSA","1113254754100012438212381786","Thomas J Burns Jr","2273 Highway 33 Ste 201","08690","Trenton","NJ","USA"
"0195551733","USOH100794627","DnB","084440622","Maxwell Mechanical","11595 Old Rainer Rd","43777","Roseville","OH","USA"
"0919625771","USUT100125117","DnB","808514660","Residence Inn By Marriott","6425 S 3000 E","84121","Salt Lake City","UT","USA"
"0204681734","USFL101691807","DnB","093570623","Emery Trucking","248 SW Utah St","32038","Fort White","FL","USA"
"0214689307","USTX102431468","DnB","103578196","Motor Man","10604 Bluff Bend Dr","78753","Austin","TX","USA"
"0125680433","USNJ100748694","DnB","014569322","Quick Mart","905 Frank E Rdgers Blvd S","07029","Harrison","NJ","USA"
"0146155424","USFL101666130","DnB","035044313","AAA Affordable","1899 Peace Ter","32533","Cantonment","FL","USA"
"2011714571","USNC100332967","DBUSA","1113257491354912438249275452","Movers World Van Lines","5400 Bragg Blvd","28303","Fayetteville","NC","USA"
"2030770950","USTX102269319","DBUSA","1114001720902912450032391860","Randle Family Farm","PO Box 281","76849","Junction","TX","USA"
"0289430678","USCA102058231","DnB","178319567","Seaport Lighting","2320 E Walnut Ave","92831","Fullerton","CA","USA"
"2029096517","USMD101221228","DBUSA","1114001625935111140016259351","SECU Credit Union","8055 Jumpers Hole Rd","21122","Pasadena","MD","USA"
"2006495396","USFL100407326","DBUSA","1113257093133811132570931338","Dish Network","5298 W Copans Rd","33063","Pompano Beach","FL","USA"
"0221631754","USOH100865205","DnB","110520643","Lawson Surge Electric","1118 Linwood Ave","43206","Columbus","OH","USA"
"2032349862","USFL101136463","DBUSA","1113254881537412450027295804","Southampton Restoration","5555 Village Blvd","33407","West Palm Beach","FL","USA"
"2031008349","USNE100195954","DBUSA","1114001711755412450032300387","Zerbe Family Farm","87457 518 Ave","68764","Orchard","NE","USA"
"2035839827","USOH100684969","DBUSA","1113257250075212440000108508","Hanser Music Group","9615 Inter Ocean Dr","45246","Cincinnati","OH","USA"
"2010161752","USTX101276480","DBUSA","1113255203083712438242300018","BNB Wholesale Skinning","247 Thrill Hill Dr","78058","Mountain Home","TX","USA"
"2035944849","USWA100744530","DBUSA","1114002192046312450045247678","Rocash","4466 Ferncroft Rd","98040","Mercer Island","WA","USA"
"2006820194","USNJ100207639","DBUSA","1113254444474812438252386541","Spring Dance Hot Tubs","755 S Route 73","08091","West Berlin","NJ","USA"
"0307668280","USCA103242445","DnB","196557169","Armstrong Garden Centers","17552 Golden W Blvd","92647","Huntington Beach","CA","USA"
"2034705228","USNJ100353479","DBUSA","1113257260666412450040791592","Heartcare Center","38 Mayhill St","07663","Saddle Brook","NJ","USA"
"2026975003","USMI100618185","DBUSA","1114001400004611140014000046","Express Delivery Group","256 Earlmoor Blvd","48341","Pontiac","MI","USA"
"2011043460","USWA100248918","DBUSA","1113255441948112438245240673","Federal Way Motel","29815 Pacific Hwy S","98003","Federal Way","WA","USA"
"2005399665","USMA100128864","DBUSA","1113255357466212438252385045","Spring Brook Farm Country Store","591 Great Rd","01460","Littleton","MA","USA"
"2002572622","USWI100048581","DBUSA","1113254375071911132543750719","St Luke's Optifast Program","2900 W Oklahoma Ave","53215","Milwaukee","WI","USA"
"0133017415","USVA100659270","DnB","021906304","Paradise Creek Nature Park","1141 Victory Blvd","23702","Portsmouth","VA","USA"
"2013570194","USCO100248348","DBUSA","1113257555627711132575556277","Pain Center of Roaring Fork","1450 E Valley Rd","81621","Basalt","CO","USA"
"2021266315","USNJ100571255","DBUSA","1114001130750512450029226918","Cindy's Flowers & Gift Shop","451 W Grand Ave","07065","Rahway","NJ","USA"
"0254472797","USOH100844057","DnB","143361686","Action Specialties","17295 Foltz Pkwy","44149","Strongsville","OH","USA"
"2019706017","USMN100332762","DBUSA","1114001011561511140010115615","Casey's","1109 State St N","56093","Waseca","MN","USA"
"2004887266","USTX100337966","DBUSA","1113255225673311132552256733","Wild Bill's Hitchn Post","1205 Fm 780","75125","Ferris","TX","USA"
"2003141820","USNV100024569","DBUSA","1113255023195311132550231953","Flyers","125 N Mountain St","89820","Battle Mountain","NV","USA"
"0126402331","USOK100302130","DnB","015291220","T Med Surgical Devices & Bracing","4635 S Wheeling Ave","74105","Tulsa","OK","USA"
"2027125926","USAZ100384233","DBUSA","1114001463207411140014632074","Cox Store","1321 E Florence Blvd Ste 2","85122","Casa Grande","AZ","USA"
"0122565798","USVA100604484","DnB","011454687","Gromcoast","2324 Valle Rio Way","23456","Virginia Beach","VA","USA"
"2034485420","USNY100778743","DBUSA","1114001514487812450038967632","Quality Installation","5844 Maurice Ave","11378","Maspeth","NY","USA"
"2027937014","USNJ100671618","DBUSA","1114001574353012450031374829","John D Koerner MD","266 Harristown Rd Ste 100","07452","Glen Rock","NJ","USA"
"0893719961","USNM100152751","DnB","782608850","Wrightway Express","1718 E Highland Dr","88240","Hobbs","NM","USA"
"0211572173","USFL100472067","DnB","100461062","Wright Travel","5353 N Federal Hwy","33308","Fort Lauderdale","FL","USA"
"2022794380","USPA100838219","DBUSA","1114000571213712450029505008","Fiberblades","1150 Northbrook Dr Ste 150","15931","Ebensburg","PA","USA"
"01039360261","USTX101853031","DnB","928249150","Chicago's Finest Pizza","6150 Independence Pkwy","75023","Plano","TX","USA"
"2000322229","USNY100022790","DBUSA","1113254190981412438243157281","Cheryl L Jones Law Offices","499 S Warren St Ste 516","13202","Syracuse","NY","USA"
"2031601465","USTX102313464","DBUSA","1114001793324412450032728323","Brorman Family Farm","5510 County Road M","79045","Hereford","TX","USA"
"2033996862","USGA101073365","DBUSA","1114001921788211140019217882","Dr Shannon Thorsteinson","755 Commerce Dr Ste 520","30030","Decatur","GA","USA"
"0178446341","USCA103166823","DnB","067335230","Constitution Quest","27475 Ynez Rd","92591","Temecula","CA","USA"
"2034024202","USVA100662914","DBUSA","1114001664834812450034035185","Carniceria Lily","1525 Williamson Rd Ne","24012","Roanoke","VA","USA"
"2004080837","USNJ100127676","DBUSA","1113255114532811132551145328","Green Nature Landscape Design","31 Patania Ct","07035","Lincoln Park","NJ","USA"
"2027072636","USCA102492650","DBUSA","1114001463192711140014631927","Zepeda Wood Works","14922 Ramona Blvd Ste D","91706","Baldwin Park","CA","USA"
"2028866579","USSC100332258","DBUSA","1114001615776111140016157761","Blanton Chiropractic & Wellness","272 Giles Dr","29316","Boiling Springs","SC","USA"
"2007047029","USNY100431877","DBUSA","1114000378341811140003783418","Godwin Stanley","1 Ascot Ln","12309","Schenectady","NY","USA"
"2006395020","USNY101208311","DBUSA","1114000514804911140005148049","Ifuekosa Tax Service","99 Tulip Ave","11001","Floral Park","NY","USA"
"2032373806","USCA103423659","DBUSA","1114001796240211140017962402","She Global","1930 Doreen Ave","91733","South El Monte","CA","USA"
"2020074392","USIN100347635","DBUSA","1114001056086212450004216122","Heidi Adair","110 W Berry St Ste 1100","46802","Fort Wayne","IN","USA"
"2016930755","USIL100680826","DBUSA","1114000871501012450021677273","Johnson Karen MD","9730 S Western Ave Ste 100","60805","Evergreen Park","IL","USA"
"0206234191","USKS100264503","DnB","095123080","Randstad USA","7007 College Blvd","66211","Overland Park","KS","USA"
"2032574461","USCA103451116","DBUSA","1114001867325511140018673255","M F Transport","4001 Bridgewater Way","93313","Bakersfield","CA","USA"
"2004649424","USPA100194656","DBUSA","1113255505130612438244534792","Drake Refrigeration","2900 Samuel Dr","19020","Bensalem","PA","USA"
"2033355959","USNY101893917","DBUSA","1114001973440711140019734407","Shaunte Johnson","813 E 228th St","10466","Bronx","NY","USA"
"2032040618","USOR101622601","DBUSA","1114001772068111140017720681","Don Rasmussen","10125 Sw Washington Square Rd","97223","Portland","OR","USA"
"2018531841","USIL100740361","DBUSA","1114000957458411140009574584","A2z Pest Control","20291 E 500th Ave","62424","Dieterich","IL","USA"
"0209536846","USMI100857244","DnB","098425735","First Choice Home Care","18000 W 9 Mile Rd","48075","Southfield","MI","USA"
"2010587296","USVA100262722","DBUSA","1113255331848912438254239893","Western Tidewater Community Services Board","22501 Thomas Woods Trl","23898","Zuni","VA","USA"
"0125052363","USKY100322990","DnB","013941252","Arco","7780 Lewisburg Rd","42276","Russellville","KY","USA"
"2004105796","USNY100256402","DBUSA","1113255120953512438251669011","Sanoma A","1010 44th Ave Fl 1","11101","Long Island City","NY","USA"
"2002627577","USNJ100083192","DBUSA","1113254735629312438212104652","Fanous Stephan DDS","59 Brunswick Woods Dr","08816","East Brunswick","NJ","USA"
"2034280787","USTX100291456","DBUSA","1113255257203612450034705471","Fellowship Church Of Houston","7730 Fuqua St","77075","Houston","TX","USA"
"2030842142","USMO100556494","DBUSA","1114001702939412450032212228","Bird Family Farm","21987 Oval Ave","64640","Gallatin","MO","USA"
"0131254428","USFL101755989","DnB","020143317","Capt. Eddie S Fishin Business, L.L.C","940 Stoner Rd","34223","Englewood","FL","USA"
"2009471553","USCO100177069","DBUSA","1113255005554311132550055543","Raney John & Pat","834 Lake Dr","80540","Lyons","CO","USA"
"0175720526","USCA103428761","DnB","064609415","Jacks Repair & Sales","2540 Donner Way","95818","Sacramento","CA","USA"
"","USAR100367133","DAT_synup","","","1218 S. Rock Rd.","67207","Wichita","Kansas","USA"
"2035929340","USIA100034907","DBUSA","11132550819837210585744","Rockwell Automation","5770 Tremont Ave","52807","Davenport","IA","USA"
"2009729641","USVT100027278","DBUSA","1113255088124512438246526887","Hickok & Boardman Insurance","130 Upper Welden St","05478","Saint Albans","VT","USA"
"0142901890","USCA103020735","DnB","031790779","Exotic Beauty Salon","156 N Maple Ave","93702","Fresno","CA","USA"
"2031598010","USTX102316716","DBUSA","1114001788596412450032681043","Trotter Family Farm","15250 N Fm 600","79503","Avoca","TX","USA"
"2007521895","USPA100305610","DBUSA","1114000572955111140005729551","Access Services","760 Constitution Dr","19341","Exton","PA","USA"
"2030226274","USIL101114144","DBUSA","1114001662974811140016629748","Allegion Plc","947 W Hawthorn Dr","60143","Itasca","IL","USA"
"2026931670","USAR100279816","DBUSA","1114001450844711140014508447","County of Yell Sheriff Department","201 W 5th St","72833","Danville","AR","USA"
"2009332105","USTX100659655","DBUSA","1113255058908912438240676341","Aaron's","6935 Bandera Rd","78238","San Antonio","TX","USA"
"0180678347","USTX101820321","DnB","069567236","Star Struck Ranch","27958 Cline Ln","77357","New Caney","TX","USA"
"2006316522","USFL100393253","DBUSA","1114000268023512450013621736","Tj Freeman Photography","2380 Everglades Blvd S","34117","Naples","FL","USA"
"2030592888","USME100139427","DBUSA","1114001691875811140016918758","Robert Barna Ms Ladc","145 Lisbon St","04240","Lewiston","ME","USA"
"2020984192","USCO100365337","DBUSA","1113254983843812438247127197","Jack of Diamond Art","7701 Ralston Rd Unit A","80002","Arvada","CO","USA"
"2033665931","USWI100523411","DBUSA","1114001812234212450034010954","Class Experts Group","740 W Glen Oaks Ln","53092","Mequon","WI","USA"
"2030878133","USOK100359094","DBUSA","1114001717395812450032356791","Thomas Family Farm","PO Box 325","73641","Dill City","OK","USA"
"0213844518","USNY101668078","DnB","102733407","Gelfand, Dmitriy","1689 E 21st St","11210","Brooklyn","NY","USA"
"2033885462","USCA100949284","DBUSA","1113254758431112450034030379","Kim Jae J DDS","17476 Colima Rd","91748","Rowland Heights","CA","USA"
"2032873723","USTX102379996","DBUSA","1114001899700612450033095148","Charitable Shopper","13907 Montfort Dr","75240","Dallas","TX","USA"
"2023802381","USRI100025126","DBUSA","1114000512595512450030154978","99 Cents & Up","838 Admiral St","02904","Providence","RI","USA"
"2007888847","USFL100508498","DBUSA","1113254675315111132546753151","LabCorp","1730 Dunlawton Ave Ste 3","32127","Port Orange","FL","USA"
"2022994410","USOH100602125","DBUSA","1114000979297112450029588317","Procare","317 N Main St","45356","Piqua","OH","USA"
"2026297099","USMI100387438","DBUSA","11140001106788159992232","A & J Electric","51483 Quadrate Dr Ste A","48042","Macomb","MI","USA"
"2007610261","USNM100052448","DBUSA","1113254542713412438250033207","Overbay Construction","1845 Lillie Dr","87068","Bosque Farms","NM","USA"
"2033144530","USOH100844685","DBUSA","1114001954143311140019541433","G Keener","2936 Liberty Rd","45344","New Carlisle","OH","USA"
"0116156781","USGA100504179","DnB","005045670","Travelport","760 Doug Davis Dr","30354","Atlanta","GA","USA"
"2004138276","USCA100459860","DBUSA","1113255229081612438247444528","J P Cleaners","253 S La Brea Ave","90301","Inglewood","CA","USA"
"2027932797","USPA100931149","DBUSA","1114001571655412450031365045","Elizabeth M Hart DO","955 Bellefonte Ave","17745","Lock Haven","PA","USA"
"2014342882","USMA100340524","DBUSA","1113255400124111132554001241","Mario's Auto Body","977 Broadway","02151","Revere","MA","USA"
"2006975116","USNC100198768","DBUSA","1113254369411411132543694114","Tile & Wood By Timothy","","28801","Asheville","NC","USA"
"2023768943","USMA100117428","DBUSA","1113257052833911132570528339","Criminal Justice Training Council","1380 Bay St","02780","Taunton","MA","USA"
"2007182624","USCA100806733","DBUSA","1114000138052411140001380524","Immunicom","6048 Cornerstone Ct W Ste D","92121","San Diego","CA","USA"
"2003357794","USUT100028745","DBUSA","1113255119438412438249565036","New Image Hair Salon","67 E 100 N","84660","Spanish Fork","UT","USA"
"0727657981","USIN100492323","DnB","616546870","Hollinger Bicycles","120 N Main St","46526","Goshen","IN","USA"
"0668545213","USCA103014699","DnB","557434102","In Up Plaites","3191 Casitas Ave","90039","Los Angeles","CA","USA"
"2026178895","USNY101317279","DBUSA","1114001401091011140014010910","Tannenbaum Moshe Rabbi","36 Walworth St","11205","Brooklyn","NY","USA"
"2020789386","USTX101409388","DBUSA","1114001111242211140011112422","Dairy Land","310 Cavalcade St","77009","Houston","TX","USA"
"2014258788","USTX101283407","DBUSA","1113255063185412438247072504","Ips Services","4265 San Felipe St Ste 1100","77027","Houston","TX","USA"
"2018762141","USPA100495684","DBUSA","1114000039523712450022069758","Moda Technology Partners","580 Virginia Dr","19034","Fort Washington","PA","USA"
"2033026635","USNJ100895411","DBUSA","1114001859046012450033062610","Unbothered Melanin","310 Blossom Cir","08234","Egg Harbor Township","NJ","USA"
"2035867260","USNC100462428","DBUSA","1113254416154312450055326191","Berkshire Hathaway Home Services","7930 W Kenton Cir Ste 300","28078","Huntersville","NC","USA"
"2035738321","USTX100985439","DBUSA","1113400310769412450063875544","Marshalls","3333 Preston Rd Ste 500","75034","Frisco","TX","USA"
"","USCA103553373","DAT_uberall","","","16461a Ventura Boulevard","91436","Encino","CA","USA"
"2017076873","USGA100534720","DBUSA","1114000886246912450021811705","The Creative Momentum","1801 Old Alabama Rd Ste 125","30076","Roswell","GA","USA"
"2013206386","USIL100515480","DBUSA","1113256761561112440000492177","Paris Frozen Foods","305 Springfield Rd","62049","Hillsboro","IL","USA"
"2024730333","USVA100191067","DBUSA","1113254665284911132546652849","Healing Springs Animal Hospital","107 Nuckolls Curve Rd","24333","Galax","VA","USA"
"2012979767","USIL100507884","DBUSA","1114000432400111140004324001","Ellwood Steak and Fish House","2219 Sycamore Rd","60115","Dekalb","IL","USA"
"2007412777","USPA100301613","DBUSA","1113254563964111132545639641","Kist C Drywall & Plastering","1476 Mitnik Ave","15909","Johnstown","PA","USA"
"2002661844","USFL100159346","DBUSA","1113254856353212450012685384","Sunshine Gasoline","16711 Collins Ave","33160","North Miami Beach","FL","USA"
"2022147265","USCA102306480","DBUSA","1113255385063512450029361958","Delias Cleaners","28723 S Western Ave","90275","Rancho Palos Verdes","CA","USA"
"2035906301","USIN100562200","DBUSA","1113255286852212450061597545","Hosler Realty","106 S Main St","46755","Kendallville","IN","USA"
"2007775870","USGA100236701","DBUSA","1113254557100212438246683210","Hometown Food Store","1165 27th St","31904","Columbus","GA","USA"
"2029797782","USPA100987123","DBUSA","1114001643852711140016438527","Doylestown Escape Room","140 S Main St","18901","Doylestown","PA","USA"
"2025961801","USNE100146724","DBUSA","1114001380301611140013803016","Professional Partner Program","206 W Monroe Ave","68701","Norfolk","NE","USA"
"2008532327","USIA100091351","DBUSA","1113254785978011132547859780","Everly Fire & Rescue","102 W 2nd St","51338","Everly","IA","USA"
"2033530086","USCA103547513","DBUSA","1114001997919611140019979196","Elev8 Yoga & Fitness","446 W Napa St","95476","Sonoma","CA","USA"
"2005024430","USMS100040731","DBUSA","1113255485835912438248422063","Macon Presbyterian Church","847 Washington St","39341","Macon","MS","USA"
"2016911206","USAZ100305257","DBUSA","1114000869359312450021656854","Bakke, Frank A, MD","3390 N Campbell Ave Ste 110","85719","Tucson","AZ","USA"
"2023679699","USME100058817","DBUSA","1113256976532212450030162041","Cat Trax","4788 Bennoch Rd","04453","Lagrange","ME","USA"
"2001465436","USWA100042400","DBUSA","1113254520872011132545208720","Dixon Backflow Testing","344 N 138th St","98133","Seattle","WA","USA"
"0262407098","USUT100226469","DnB","151295987","Bottman Design","1081 S 300 W","84101","Salt Lake City","UT","USA"
"2032689689","USMI100843966","DBUSA","1114001873778311140018737783","Blue Granite Marble","4820 Empire Way","48917","Lansing","MI","USA"
"2024423306","USKY100121485","DBUSA","1113254952577012438246949837","Infinity-Laser Med Spa","128 Keystone Ave","40004","Bardstown","KY","USA"
"2035340919","USVA100795190","DBUSA","1114002119115111140021191151","Sparkling Bubbles","728 Morrison Ave","24179","Vinton","VA","USA"
"","USAZ100405855","DAT_synup","","","2740 S. Woodland Village Blvd.","86001","Flagstaff","Arizona","USA"
"0195965163","USIN100461809","DnB","084854052","St. Earth Pottery","4693 E County Road 200 N","46128","Fillmore","IN","USA"
"2035035306","USMI100895171","DBUSA","1114002023918411140020239184","Barbara Barnes Health Coaching","2901 S 9 1/2 Rd","49638","Harrietta","MI","USA"
"2012855583","USMS100106627","DBUSA","1114000524215111140005242151","United Way","109 N Main St","38863","Pontotoc","MS","USA"
"2006653176","USPA100273680","DBUSA","1113254435177512438246956964","In Gear Cycling & Fitness","9030 Bridge Rd","17036","Hummelstown","PA","USA"
"2000299045","USTN100005726","DBUSA","1113254181451512438202582263","Charles Rogers","201 W Springdale Ave","37917","Knoxville","TN","USA"
"2031941138","USCO101559097","DBUSA","1114001775302812450032548111","Simmons Family Farm","28300 County Road 22","81067","Rocky Ford","CO","USA"
"2030917945","USKS100289806","DBUSA","1114001705379912450032236632","Meyer Family Farm","2481 Goldfinch Rd","66434","Hiawatha","KS","USA"
"2005186128","USCO100095803","DBUSA","1113254474817411132544748174","US Energy Department","","80728","Fleming","CO","USA"
"2021338275","USPA100817105","DBUSA","1114001176827911140011768279","Timeline Pi","900 W Sproul Rd Ste 102","19064","Springfield","PA","USA"
"0142441232","USFL101947402","DnB","031330121","Rcv Property","5610 Blanding Blvd","32244","Jacksonville","FL","USA"
"0178747124","USUT100207430","DnB","067636013","Shawn L Carter Panting","520 S Gale St","84101","Salt Lake City","UT","USA"
"2023574792","USFL100138364","DBUSA","1113254869747712450029875338","Designer Blinds & Fabrics","1830 Ne 144th St","33181","Miami","FL","USA"
"2028298086","USWA100498636","DBUSA","1114001570983512450031362390","Emily N Peterson MD","21911 76th Ave W Ste 110","98026","Edmonds","WA","USA"
"0157580669","USWV100121789","DnB","046469558","Princeton Speedway","177 Racetrack Rd","24740","Princeton","WV","USA"
"0122653096","USTN100353198","DnB","011541985","Algood Auto Sales","330 W Broad St","38501","Cookeville","TN","USA"
"2027800252","USNC100672675","DBUSA","1114001523037611140015230376","Sabor Latino","7012 Albemarle Rd","28227","Charlotte","NC","USA"
"2001673467","USMI100047233","DBUSA","1113254647479712438210936423","Charlotte Hartzell Liioi MD","6900 Orchard Lake Rd Ste 307","48322","West Bloomfield","MI","USA"
"2035818750","USTN100640831","DBUSA","1114002195226112450045264685","Rays Technical Solutions","1100 Halle Park Cir Ste 102","38017","Collierville","TN","USA"
"2016726003","USPA100692859","DBUSA","1114000852403312450021494956","David Behar MD","4 S 4th St Fl 2","19602","Reading","PA","USA"
"0938978572","USIL101034763","DnB","827867461","Kay Jewelers","401 Town Sq","60189","Wheaton","IL","USA"
"2019993127","USAL100281173","DBUSA","1114001051689112450021080393","Alan Duke","2204 Lakeshore Dr Ste 114","35209","Birmingham","AL","USA"
"01080858035","USIL100937452","DnB","969746924","Bud Meitl & Sons Painting","7n060 Sauber Rd","60151","Maple Park","IL","USA"
"2023335646","USTX100048494","DBUSA","1113254292947812450030093180","Bass Landscape","PO Box 67","75444","Golden","TX","USA"
"2035809508","USIL100818567","DBUSA","11132578724531213775386","Visualingo","1633 W Belle Plaine Ave","60613","Chicago","IL","USA"
"0212942390","USFL100702251","DnB","101831279","Clayton Roper & Marshall","246 N Westmonte Dr","32714","Altamonte Springs","FL","USA"
"2001658692","USTX100110260","DBUSA","1113254548458911132545484589","Best Floors","PO Box 4821","78469","Corpus Christi","TX","USA"
"2009666167","USIL100364373","DBUSA","1113255189824312438241094620","Alliance International","1555 N Mittel Blvd","60191","Wood Dale","IL","USA"
"0243033295","USCA102753932","DnB","131922184","AC Imports","903 Harness Ln","92860","Norco","CA","USA"
"2002495326","USNY100156951","DBUSA","1113254767094912438212573412","James J Shen","453 Colon Ave","10308","Staten Island","NY","USA"
"2003312933","USDC100013724","DBUSA","1113255269137211132552691372","Capitol Place 1","555 New Jersey Ave Nw","20001","Washington","DC","USA"
"2010410153","USNC100293715","DBUSA","1113255284749712438244637912","Eagle Insulation","34 Tice St","28170","Wadesboro","NC","USA"
"2006024697","USTX100421800","DBUSA","1114000411686111140004116861","Forever Dancewear","283 S Union Ave","78130","New Braunfels","TX","USA"
"2028015631","USFL101540159","DBUSA","1114001537013112450031227771","Levine, Richard M, MD","4101 Jim Walter Blvd","33607","Tampa","FL","USA"
"0217868277","USCA103242646","DnB","106757166","Legacy Staffing","4340 Stevens Creek Blvd","95129","San Jose","CA","USA"
"2021160132","USGA100613006","DBUSA","1114001137568612450029108362","Four Sixty Four Bishop Apartments","464 Bishop St Nw","30318","Atlanta","GA","USA"
"2002636781","USNJ100083686","DBUSA","1113254737900512438212138002","Lekha Tull DDS","214 N Harrison St","08540","Princeton","NJ","USA"
"2026138088","USNY101319138","DBUSA","1114001388396511140013883965","AT&T Store","2865 Richmond Ave","10314","Staten Island","NY","USA"
"2002236990","USKS100021848","DBUSA","1113254844706312438252295616","Southside Home Center","3020 S Broadway Ave","67216","Wichita","KS","USA"
"2015832064","USTX100108212","DBUSA","1113254539354912450020760823","Affordable storage","817 S Getty St","78801","Uvalde","TX","USA"
"0191668979","USIA100262893","DnB","080557868","ReModel Monster","314 North St","50167","Minburn","IA","USA"
"0177629580","USOR101623989","DnB","066518469","Body Bliss Massage Spa","5955 SW Hall Blvd","97005","Beaverton","OR","USA"
"2000658267","USMO100012586","DBUSA","1113254199660812438202839437","Jane E Wagner-Garner","118 Pine St","63640","Farmington","MO","USA"
"2035320164","USNY101992705","DBUSA","1114002119606911140021196069","Dee Market","873 Portland Ave","14621","Rochester","NY","USA"
"2004870196","USWA100373894","DBUSA","1113255441796612438242897407","Cascade Funding","12805 109th Ave Ne","98034","Kirkland","WA","USA"
"2012747973","USTX100908883","DBUSA","1114000467396812450016722606","Beaver Builders","412 N 5th St","76266","Sanger","TX","USA"
"2027805674","USNJ100655713","DBUSA","1114001526503111140015265031","The Linden Car Gallery at Deluxe Auto","500 Commerce Rd","07036","Linden","NJ","USA"
"2000984192","USNY100065802","DBUSA","1113254434254111132544342541","Ultimate Fitness & Wellness","271 Kelly Blvd","10314","Staten Island","NY","USA"
"2035442360","USTX102553976","DBUSA","1114002158898011140021588980","Angelo Web Designs","1713 Wyoming Ave","76904","San Angelo","TX","USA"
"2000277807","USMS100001862","DBUSA","1113254188355811132541883558","Southwest Neurology Clinic","300 Rawls Dr Ste 1000","39648","Mccomb","MS","USA"
"2002414589","USNY100151172","DBUSA","1113254910070212438254227314","Western Bag & Paper Supplies","220 Ingraham St Ste 5","11237","Brooklyn","NY","USA"
"2013844527","USFL100904126","DBUSA","1114000121906312438244329185","Moragon Diana Law Office Of","2800 N Macdill Ave Ste A","33607","Tampa","FL","USA"
"2013463308","USNY100826559","DBUSA","1113257228216012438246032930","Gramercy Park School of Music","9 E 36th St Apt 2b","10016","New York","NY","USA"
"2032300994","USSC100435271","DBUSA","1114001806155611140018061556","Professional Group","1156 Ebenezer Rd","29732","Rock Hill","SC","USA"
"2033123572","USGA100685942","DBUSA","1113254179597012450022838028","Emory Inn","1641 Clifton Rd Ne","30329","Atlanta","GA","USA"
"2000210722","USGA100005641","DBUSA","1113254169414712438202411789","Yavuz A Tarcan MD","1365 Clifton Rd Ne","30322","Atlanta","GA","USA"
"2008297532","USOH100258049","DBUSA","1113254743553912438212222682","Jeffrey L Finley","431 2nd Ave","45631","Gallipolis","OH","USA"
"2027944968","USAL100344429","DBUSA","1114001579448512450031490349","Nathan L Mendoza","1802 6th Ave S","35233","Birmingham","AL","USA"
"2004792334","USCT100061507","DBUSA","1113255414396012438249558531","New Heights","64 West St","06810","Danbury","CT","USA"
"2034303485","USCA100091194","DBUSA","1113254221607712450037771999","Stanton University","9618 Garden Grove Blvd Ste 220","92844","Garden Grove","CA","USA"
"0192645660","USCA102842633","DnB","081534549","Prism Logistics","3535 Perlman Dr","95206","Stockton","CA","USA"
"2027505803","USFL101502953","DBUSA","1114001500432911140015004329","Art2D Gallery & Studio","2076 J And C Blvd","34109","Naples","FL","USA"
"0191513500","USIN100482514","DnB","080402389","American Aqua Solutions","846 S Dan Jones Rd","46123","Avon","IN","USA"
"0186011827","USFL101441176","DnB","074900716","Vapors Spot Smoke Shop","2411 S Pine Ave","34471","Ocala","FL","USA"
"2035896957","USMI100905971","DBUSA","1114002225907311140022259073","Ben Schloop Independent Insurance Agent","980 N Stevens Rd","49651","Lake City","MI","USA"
"2002659673","USMS100167819","DBUSA","1113254855448812438245460447","Floyd's Formals","4219 Lincoln Rd","39402","Hattiesburg","MS","USA"
"2009049915","USTX100637479","DBUSA","1113254977471612438252301491","Southwest Art Gallery","4500 Sigma Rd","75244","Dallas","TX","USA"
"2010611207","USCA101182048","DBUSA","1113255152673911132551526739","Window Smith","6220 Lake Ariana Ave","92119","San Diego","CA","USA"
"0209675851","USGA101033892","DnB","098564740","Gwinnett County Schools Printshop","495 Maltbie St","30046","Lawrenceville","GA","USA"
"2024692464","USCO101379285","DBUSA","1114001303930211140013039302","Aka Construction","2578 S Anaheim St","80014","Aurora","CO","USA"
"2030180122","USCA103293855","DBUSA","1114001682548511140016825485","Flydata","1043 N Shoreline Blvd Ste 200","94043","Mountain View","CA","USA"
"0116330790","USCT100331866","DnB","005219679","Bushwick Metals","130 Research Pkwy","06450","Meriden","CT","USA"
"0183018297","USTX102132072","DnB","071907186","State Farm","2150 N Josey Ln","75006","Carrollton","TX","USA"
"2007570380","USMN100130076","DBUSA","1113254481550511132544815505","K & S Heating & Air","","55060","Owatonna","MN","USA"
"2028033521","USNC100683073","DBUSA","1114001542790712450031569966","Dr. Paul J. Choong, MD","3333 Silas Creek Pkwy","27103","Winston Salem","NC","USA"
"2009616996","USNJ100296806","DBUSA","1113255132328811132551323288","D'amico Nursery","193 Washington St","07647","Northvale","NJ","USA"
"0171527631","USSC100269435","DnB","060416520","Staceyl Jackson LPC","2375 E Main St","29307","Spartanburg","SC","USA"
"0135756771","USAZ100419155","DnB","024645660","Champion Pool Care","1572 W Musket Way","85286","Chandler","AZ","USA"
"2034647887","USKY100141123","DBUSA","1113257423524512450035832738","Macy's","5000 Mall Rd","41042","Florence","KY","USA"
"2034318754","USCA100958894","DBUSA","1113254809306812450035405617","Allstate","2376 University Ave","94303","Palo Alto","CA","USA"
"2035894924","USMI100905874","DBUSA","1114002218220711140022182207","Cleansweep","707 Division St","48867","Owosso","MI","USA"
"0186232167","USPA100881645","DnB","075121056","Lester M Stein Architect","3205 Lord Byron Dr","18017","Bethlehem","PA","USA"
"0941895566","USLA100365065","DnB","830784455","Debbie Cronin","9011 Worth Ave","70810","Baton Rouge","LA","USA"
"2028005559","USCA102546189","DBUSA","1114001457193311140014571933","Order In","473 S Carnegie Dr","92408","San Bernardino","CA","USA"
"0127100032","USCA100125345","DnB","015988921","Graybar Electric","4401 E Central Ave","93725","Fresno","CA","USA"
"2031654628","USCA103392783","DBUSA","1114001777854912450032573631","Bucklin Family Farm","421 Litho St","94965","Sausalito","CA","USA"
"2024173839","USCA102191462","DBUSA","1114001138726012450030234010","Rg Roofing and General Building","345 E Tulare Ave","93277","Visalia","CA","USA"
"2029479993","USWA100296614","DBUSA","1114000020502612450031941692","Empire Hospitality","901 Officers Row","98661","Vancouver","WA","USA"
"2023270172","USCA102299597","DBUSA","1114001253831912450029613537","Landa Mizin Dental Partnership","2625 W Alameda Ave Ste 502","91505","Burbank","CA","USA"
"2016907509","USIL100676845","DBUSA","1114000868996412450021653402","Branta, Jeffrey W, DO","100 W 162nd St","60473","South Holland","IL","USA"
"0180575849","USCA102839800","DnB","069464738","Boardwalk Internet","3040 Valencia Ave","95003","Aptos","CA","USA"
"2000987701","USCA100118091","DBUSA","1113254233805012438203364113","Cong Zhang MD","269 Campus Dr","94305","Stanford","CA","USA"
"2006289907","USTX100439606","DBUSA","1114000192938111140001929381","Vapor Sense","2672 S Bypass 35","77511","Alvin","TX","USA"
"2000571499","USAZ100011085","DBUSA","1113254193596412438202752767","David Nilsen, DO","37100 N Gantzel Rd Ste 107","85140","San Tan Valley","AZ","USA"
"2005165726","USOR100072794","DBUSA","1114000445045011140004450450","Dotty's","1001 Se Tualatin Valley Hwy","97123","Hillsboro","OR","USA"
"2019072850","USCA101605311","DBUSA","11132545455365157435576","San Joaquin Risk Management Division","24 S Hunter St Ste 106","95202","Stockton","CA","USA"
"0897352496","USOR101643113","DnB","786241385","CoolSys","2007 25th St SE","97302","Salem","OR","USA"
"2016948118","USMA100407980","DBUSA","1114000873064812450021692140","Robinson, Kimberly A, MD","159 Union St Ste 102","01752","Marlborough","MA","USA"
"0151699728","USAZ100488542","DnB","040588617","National Audio Visual Solutions","5115 N Dysart Rd","85340","Litchfield Park","AZ","USA"
"2022957865","USGA100296853","DBUSA","1113255226489312450029603610","James Thomas Air","48 Boardtown Rd","30513","Blue Ridge","GA","USA"
"2029576663","USTX100795361","DBUSA","1113255462716212438244291070","DeSoto Private School & Day Care Center","301 E Belt Line Rd","75115","Desoto","TX","USA"
"2006480196","USWA100149464","DBUSA","1114000539665311140005396653","Tulalip Tribal Police","","98271","Marysville","WA","USA"
"2029010470","USMN100404665","DBUSA","1114001629085311140016290853","Italian Eatery","4724 Cedar Ave S","55407","Minneapolis","MN","USA"
"0248509842","USNJ100836600","DnB","137398731","A Master's Touch","218 Changebridge Rd","07045","Montville","NJ","USA"
"2028834845","USNY101432354","DBUSA","1114001485857911140014858579","Benson Surgical Supply","5375 Transit Rd Wmrsvl","14602","Rochester","NY","USA"
"2010288321","USCT100131799","DBUSA","1113255304716512438249932465","One Stop Hose & Hydraulics","425 Fairfield Ave Ste 6","06902","Stamford","CT","USA"
"0901895087","USNE100063043","DnB","790783976","Godfather's Pizza","304 N Smith Ave","68956","Kenesaw","NE","USA"
"2032210902","USPA101185023","DBUSA","1114001691465412450032932644","Andrew D Wilson DDS","2301 E Allegheny Ave","19134","Philadelphia","PA","USA"
"0143455064","USNY101592547","DnB","032343953","Pnv Cleaners","960 S Lake Blvd","10541","Mahopac","NY","USA"
"0240874062","USCA103018843","DnB","129762951","March, Daniel S Law Offices of","1801 Park Court Pl","92701","Santa Ana","CA","USA"
"2016859522","USFL101107991","DBUSA","1114000863953912450021605404","Shah, Mitul MD","2863 Delaney Ave","32806","Orlando","FL","USA"
"2028155797","USNC100683339","DBUSA","1114001574192512450031610610","Jennifer Kinley","4420 Lake Boone Trl","27607","Raleigh","NC","USA"
"2009084736","USAZ100159933","DBUSA","1113255003349712438243178706","Chicken On the Run","12479 S Frontage Rd","85367","Yuma","AZ","USA"
"2028314878","USNC100682444","DBUSA","1114001588829012450031428253","Asher J Schranz MD","130 Mason Farm Rd Ste 4100","27599","Chapel Hill","NC","USA"
"0896892992","USPA101127636","DnB","785781881","Charles P. Elliott, P.C","110 Central Ave","19012","Cheltenham","PA","USA"
"0129882739","USSC100442602","DnB","018771628","It's 4 U Travels","6296 Rivers Ave","29406","North Charleston","SC","USA"
"0950127622","USKY100322640","DnB","839016511","Electrical Contracting Company","80 James Cabin Rd","42503","Somerset","KY","USA"
"0124020166","USTN100502372","DnB","012909055","Worship Technologies","820 Fetnlers Pkwy","37210","Nashville","TN","USA"
"2020248942","USNY101132163","DBUSA","1114000985842712450028759968","Dr. Sanjay Kantu","9015 5th Ave","11209","Brooklyn","NY","USA"
"0129266332","USIN100545811","DnB","018155221","Bassett Planning Services","524 Brentwood Dr W","46168","Plainfield","IN","USA"
"2029339116","USTX101282989","DBUSA","1113254536693412450028943559","UniFirst Uniform Services","1 Lou Stroup Dr","78801","Uvalde","TX","USA"
"2029292090","USWY100045180","DBUSA","1113254542928512438242056763","Benedict's Market","950 N Highway 414","82939","Mountain View","WY","USA"
"2013563984","USCA101525245","DBUSA","1114000636093711140006360937","Parkview Finanical","5130 Yarmouth Ave","91316","Encino","CA","USA"
"2022714312","USCT100004336","DBUSA","1113254239641112450029468880","Susan G Cartier Law Offices","","06511","New Haven","CT","USA"
"0297958624","USAZ100158651","DnB","186847513","Lincoln","3601 N Stockton Hill Rd","86409","Kingman","AZ","USA"
"2028235715","USCA102553558","DBUSA","1114001552973212450031459650","Jitenbhai J Patel","460 N Elm St","92025","Escondido","CA","USA"
"0143527167","USWA100559126","DnB","032416056","Sheds + More","1056 Tennant Way","98632","Longview","WA","USA"
"2003722525","USKS100036570","DBUSA","1113254343682612450014427587","M Ball Construction","6039 Se 69th St","66409","Berryton","KS","USA"
"2017053906","USOH100557053","DBUSA","1114000884357512450021800157","Michael R Denike MD","1900 S Main St","45840","Findlay","OH","USA"
"2030453590","USAZ100524911","DBUSA","1114001665972711140016659727","Dougs","695 N State Route 89","86323","Chino Valley","AZ","USA"
"2009805346","USCA101094529","DBUSA","1113255099452711132550994527","Paradise Tan","1071 Dorsetshire Ln","92705","Santa Ana","CA","USA"
"2028163119","USMI100631628","DBUSA","1114001543758512450031255330","Marisa M Degroff DDS","2316 S Cedar St","48910","Lansing","MI","USA"
"2029227688","USAR100072560","DBUSA","1113254565613312450012678375","Sonic Drive-In","578 Highway 71 N","72958","Waldron","AR","USA"
"2002893966","USMA100416706","DBUSA","1113254899501312438246238435","Hair It Is","10 Seaboard Ln Ste 3","02601","Hyannis","MA","USA"
"2035133457","USNJ100434087","DBUSA","1113254944067112450040205995","Thievon Wright Consulting Group","12 New Providence Rd Ste 2","07069","Watchung","NJ","USA"
"2031055403","USTX102048268","DBUSA","1114001752212711140017522127","Metro by T-Mobile","1217 S Austin Ave Ste 104","75020","Denison","TX","USA"
"2035973188","USKS100319459","DBUSA","11140018353251214203298","Itrenew","15351 S Green Rd","66061","Olathe","KS","USA"
"2013063206","USMD100241437","DBUSA","1113255502171812438251788164","Sea Gate Sales & Rentals","3001 Atlantic Ave","21842","Ocean City","MD","USA"
"2034966169","USTN100631860","DBUSA","1114002103329812450042711599","Louspuds","735 Heatherhurst Ct","37043","Clarksville","TN","USA"
"2028493436","USTX101696111","DBUSA","1114001586658412450031420258","Shah, Ronak V, DO","2101 Nasa Pkwy","77058","Houston","TX","USA"
"2006160572","USWI100113053","DBUSA","1114000134656011140001346560","Pipe Master Plumbing","5144 Douglas Ave","53402","Racine","WI","USA"
"0221396103","USFL101802379","DnB","110284992","Eiland, Jillian C","756 N Sun Dr","32746","Lake Mary","FL","USA"
"0281688133","USWA100695772","DnB","170577022","4th Avenue Caffe","500 4th Ave","98104","Seattle","WA","USA"
"2033209238","USMA100511951","DBUSA","1113254433936412450027846546","US Ecology","185 Industrial Rd","02093","Wrentham","MA","USA"
"2009466464","USFL100602409","DBUSA","1113254962899512438245727534","Garland Insurance","1740 E Edgewood Dr","33803","Lakeland","FL","USA"
"0207266373","USNC100954009","DnB","096155262","Triad Employment Solution","805 N Main St","27262","High Point","NC","USA"
"2032184474","USCA102443642","DBUSA","1114001470463012450032901277","Wildwood Waffles","770 Wildwood Ave","95562","Rio Dell","CA","USA"
"2009902413","USMO100184199","DBUSA","1113255255586011132552555860","Homesmartz","746 S Florida Ave","64801","Joplin","MO","USA"
"0123846199","USFL101644221","DnB","012735088","Florida Native Pool Service","15283 Tangelo Blvd","33412","West Palm Beach","FL","USA"
"0164758802","USCA102960013","DnB","053647691","Steamspunk Studio","585 W Nees Ave","93711","Fresno","CA","USA"
"2020059440","USNM100119265","DBUSA","1114001048863811140010488638","Bluewater Linen","1820 Bellamah Ave Nw","87104","Albuquerque","NM","USA"
"2003977817","USNV100030873","DBUSA","1113255294486011132552944860","Efron Computerized Studios","8275 S Eastern Ave","89123","Las Vegas","NV","USA"
"2034965238","USTN100632041","DBUSA","1114002100224212450042699012","G & S Electric","2319 Brewer Rd","38572","Crossville","TN","USA"
"2007012986","USCA100787906","DBUSA","1114000018412211140000184122","Dm Fuel Distributors","","93022","Oak View","CA","USA"
"0169912595","USIL101007848","DnB","058801484","BIKEMAX","10516 S Kolmar Ave","60453","Oak Lawn","IL","USA"
"2007429897","USCA100833921","DBUSA","1113254518419111132545184191","Say No More","850 River Rd","93908","Salinas","CA","USA"
"2009163274","USPA100380246","DBUSA","1113255007641111132550076411","Northern Tier Community Action","114 E Arnold Ave","16743","Port Allegany","PA","USA"
"2022757340","USNE100021046","DBUSA","1113255185861512450029475767","Dean C Lesoing Auctioneer","8600 S 30th St Ste 116","68516","Lincoln","NE","USA"
"2033123603","USGA100008337","DBUSA","1113254199313712450033540040","Hematology & Oncology of NE Ga","700 Breedlove Dr Ste C","30655","Monroe","GA","USA"
"2015548695","USOH100497082","DBUSA","1114000827949411140008279494","Ryan Transportation","739 N Main St","44310","Akron","OH","USA"
"0475718621","USLA100411739","DnB","364607510","Its All Gift","854 Kaliste Saloom Rd A","70508","Lafayette","LA","USA"
"2031962295","USKY100380620","DBUSA","1114001784184712450032636927","Gibson Family Farm","2318 State Route 1371 S","42023","Bardwell","KY","USA"
"2012478314","USMO100231611","DBUSA","1114000032467312450000324673","Kansas City Actors Theater","PO Box 414260","64141","Kansas City","MO","USA"
"","USMA100576539","DAT_uberall","","","178 Marlborough Street","02116","Boston","MA","USA"
"2032132138","USFL100526999","DBUSA","1113254739522612450032748190","Citrus Health Network","8400 S Palm Dr","33025","Hollywood","FL","USA"
"2001697499","USCA100195086","DBUSA","1113254560404212438253425860","Tropical Plant Service","78625 Avenue 41","92203","Indio","CA","USA"
"2029725911","USOR101537294","DBUSA","1114001635973911140016359739","Pdx Rc Underground","2030 Ne 42nd Ave","97213","Portland","OR","USA"
"2031994156","USCO101556653","DBUSA","1114001792283612450032717915","Glover Family Farm","19120 Dzuris Way","80808","Calhan","CO","USA"
"2008917886","USPA100369271","DBUSA","1113254872559612438241028642","Alcohol & Drug Abuse Services","279 Route 6 W Ofc 3","16915","Coudersport","PA","USA"
"2035261223","USCA100031678","DBUSA","1113254152220611132541522206","Slaughter Alice T","111 Myrtle St Ste 102","94607","Oakland","CA","USA"
"2004072268","USOH100130695","DBUSA","1113255312494512438251308557","River Valley Middle School","4334 Marion Mount Gilead Rd","43314","Caledonia","OH","USA"
"2029470153","USAR100047903","DBUSA","1113254378598212450013045774","Vulcan Materials Company","4437 Highway 63","72415","Black Rock","AR","USA"
"2015421867","USOR100212869","DBUSA","1114000804512612450021221949","Canyon Farm Operators","34889 Bear Creek Rd","97750","Mitchell","OR","USA"
"2004048485","USCA100450439","DBUSA","1113255198121211132551981212","Retail Delivery Drivers","1440 Southgate Ave Ste 1","94015","Daly City","CA","USA"
"2014047434","USIL100549306","DBUSA","1114000691668911140006916689","CVS Pharmacy","975 Rockland Rd","60044","Lake Bluff","IL","USA"
"2033458078","USTX100841493","DBUSA","1113257830075312450032811878","Truly Nolen","6621 Montana Ave","79925","El Paso","TX","USA"
"0193408957","USCO101446367","DnB","082297846","Colorado's Finest Roofing","11319 Paris St","80640","Commerce City","CO","USA"
"0194351464","USNJ100341686","DnB","083240353","Martinson Cleaners","980 Teaneck Rd","07666","Teaneck","NJ","USA"
"0155575308","USKS100258476","DnB","044464197","Wichita Kansas Homes & Real Estate","3531 N Ridge Rd","67205","Wichita","KS","USA"
"0155039411","USWA100360103","DnB","043928300","Cascadia Commercial","711 St Helens Ave","98402","Tacoma","WA","USA"
"2002394648","USMO100044688","DBUSA","1113254900046712438242840075","Carnahan-White Fence Company","1845 S State Highway Mm","65802","Springfield","MO","USA"
"01071302363","USIL101160946","DnB","960191252","Lakeland Caterers","44 S Old Rand Rd","60047","Lake Zurich","IL","USA"
"2031492856","USNH100167994","DBUSA","1113400356868811134003568688","Brakes Only","207 Main St","03865","Plaistow","NH","USA"
"2013144815","USTN100243076","DBUSA","1114000524035612450019738347","Obsidian Public Relations","493 S Main St Ste 101","38103","Memphis","TN","USA"
"2000572685","USMN100009283","DBUSA","1113254190179212438202704035","Thomas A Niebeling MD","17599 Kenwood Trl","55044","Lakeville","MN","USA"
"0159882281","USWA100606592","DnB","048771170","Bella Porta Salon","913 1st St","98290","Snohomish","WA","USA"
"2006940309","USNV100054548","DBUSA","1114000183252911140001832529","Fidelity Locksmith","3820 W Tropicana Ave","89103","Las Vegas","NV","USA"
"0255510267","USMO100527985","DnB","144399156","Chiro Health","6461 Lansdowne Ave","63109","Saint Louis","MO","USA"
"0223043975","USCA102902106","DnB","111932864","Klotz Ray A","7204 Tanager Dr","92011","Carlsbad","CA","USA"
"2011799217","USIL100457521","DBUSA","1113257785168212438252890846","Sylvester Physical Therapy","1524 Pitner Ave","60201","Evanston","IL","USA"
"2026492127","USCA100583787","DBUSA","1114001410639411140014106394","A Auto Glass","212 26th St","90402","Santa Monica","CA","USA"
"2004764365","USMA100113868","DBUSA","1114000057668512450000576685","Tom Patenaude Homes","2 Johnson St","01845","North Andover","MA","USA"
"2028689864","USTX101726240","DBUSA","1114001522249411140015222494","A American Debt Consolidation","27400 State Highway 249","77375","Tomball","TX","USA"
"2010550888","USNY100649624","DBUSA","1113255346564311132553465643","CK Aluminum Awning & Windows","1207 60th St","11219","Brooklyn","NY","USA"
"2035125272","USKY100421301","DBUSA","1114002098531711140020985317","Local Pest Control In Falmouth Ky","127 W Shelby St","41040","Falmouth","KY","USA"
"0137291539","USGA100796247","DnB","026180428","Nycer Rental","31 Bluff Mountain Dr SW","30165","Rome","GA","USA"
"2021428196","USMA100491758","DBUSA","1114001219868212438211480370","Daniel Murphy","95 Osgood St","01845","North Andover","MA","USA"
"2035956887","USNJ100069391","DBUSA","1113254363673311132543636733","Charlie's Shoe Repair","117 New Jersey Ave","08201","Absecon","NJ","USA"
"2035223000","USFL102357696","DBUSA","1114002036009711140020360097","Ipa Assisted Living","2825 Waldens Pond Cv","32779","Longwood","FL","USA"
"0170801684","USTX101928480","DnB","059690573","Currie Custom Home Builder","1906 Walsh Dr","78681","Round Rock","TX","USA"
"0900297169","USIL101058855","DnB","789186058","Erickson Family Chiropractic SC","5412 S IL Route 31","60012","Crystal Lake","IL","USA"
"2002636488","USNY101223931","DBUSA","1113254866258412438246392786","Hazardous Abatement","124 Pickard Dr E","13211","Syracuse","NY","USA"
"2033894578","USCA103638152","DBUSA","1114001823700611140018237006","Care Holdings","11266 Pleasant Valley Rd","95946","Penn Valley","CA","USA"
"0896546743","USMD100093553","DnB","785435632","South Laurel Ltd Partnership","14200 Cherry Lane CT","20707","Laurel","MD","USA"
"0145431515","USCA102386338","DnB","034320404","United Paver","6742 Van Nuys Blvd","91405","Van Nuys","CA","USA"
"0154232800","USIL101040238","DnB","043121689","T-Mobile","5220 Fashion Outlets Way","60018","Rosemont","IL","USA"
"0127091314","USMA100125299","DnB","015980203","Anc","47 Nichols Ave","02472","Watertown","MA","USA"
"0212951324","USFL100273102","DnB","101840213","San Jose Apartments","2353 Winter Woods Blvd","32792","Winter Park","FL","USA"
"2029637727","USMI100663270","DBUSA","1114000832573312450032085984","Backwoods Pizza","21 W State Highway M35","49841","Gwinn","MI","USA"
"2032867172","USTX101570423","DBUSA","1114001352933612450033439998","Lubbock Cooper West Elementary","10101 Fulton","79901","El Paso","TX","USA"
"2008733029","USPA100361742","DBUSA","1113254881360712438243427716","Clives Alteration","39 Washington St","18301","East Stroudsburg","PA","USA"
"0206845471","USIL101086645","DnB","095734360","Sierra","20393 N Rand Rd","60074","Kildeer","IL","USA"
"2025207799","USSC100306238","DBUSA","1114001168370511140011683705","Rivertown Studio","327 Cresthaven Pl","29681","Simpsonville","SC","USA"
"0187095667","USNJ100734500","DnB","075984556","Jack R. Martin, Esq","303 Reed Rd","08201","Absecon","NJ","USA"
"2031997630","USAZ100543243","DBUSA","1114001794351312450032738592","Laulo Family Farm","1725 Golden Gate Ave","86401","Kingman","AZ","USA"
"0152760159","USCA102932737","DnB","041649048","Computer Azontech Business","1808 D St","95811","Sacramento","CA","USA"
"2023681383","USGA100340696","DBUSA","1113257017501712450029846289","Clyde Armory","165 Ben Burton Rd Ste D","30622","Bogart","GA","USA"
"2031692877","USPA100631601","DBUSA","1114000829630912450027962905","Valley Construction Services","3017 Washington St","18052","Whitehall","PA","USA"
"0224280526","USCA102355806","DnB","113169415","Graceful Home Services","52300 Avenida Obregon","92253","La Quinta","CA","USA"
"2028639187","USFL101579883","DBUSA","1114001488981711140014889817","Hialeah Fl","1740 W 49th St","33012","Hialeah","FL","USA"
"2035940305","USWA100513016","DBUSA","11140016068137214717515","Against Gravity","300 Elliott Ave W Ste 400","98119","Seattle","WA","USA"
"2033364479","USMI100857224","DBUSA","1114001952025811140019520258","E Zee Salon","16878 15 Mile Rd","48026","Fraser","MI","USA"
"0226446096","USNY101497170","DnB","115334985","One Stop Solution","12 Beaverbrook Dr","11719","Brookhaven","NY","USA"
"2035799759","USPA100150276","DBUSA","1113254421023712450055403916","Durham School Services","2500 Wheatsheaf Ln","19137","Philadelphia","PA","USA"
"01071468621","USTX102040043","DnB","960357510","El Toro Mexican Restaurant","11920 Westheimer Rd","77077","Houston","TX","USA"
"2027546195","USTX101646682","DBUSA","1114001506461311140015064613","The Vet Clinic","1112 N Fielder Rd","76012","Arlington","TX","USA"
"0189381572","USVA100650076","DnB","078270461","Metro Services","6328 Patience CT","22315","Alexandria","VA","USA"
"2001537562","USCA100178292","DBUSA","1113254283470712438251530517","Russell Heath Cleaners","1056 E 14th St","94577","San Leandro","CA","USA"
"0192150005","USVA100468341","DnB","081038894","Computer Solution Company","1525 Huguenot Rd","23113","Midlothian","VA","USA"
"0244985908","USNJ100739368","DnB","133874797","Cumberland Landscaping","1629 Wills Pl","08361","Vineland","NJ","USA"
"2000770066","USNY101265450","DBUSA","1113254354596012438251432652","Room For Improvement","7845 Glenwood Dr N","13090","Liverpool","NY","USA"
"2027751719","USGA100722761","DBUSA","1113254656137712450031506834","Ron Smith MD","130 Enterprise Pkwy","30253","McDonough","GA","USA"
"0114833972","USAR100293364","DnB","003722861","Victory Walk","18150 Old Springtown Rd","72734","Gentry","AR","USA"
"2032531698","USTX102365354","DAT_synup","","","701 S Cedar St","79772","Pecos","Texas","USA"
"2028481045","USPA100952648","DBUSA","1114001578047512450031561280","Tawsufe Majid MD","5050 W Ridge Rd","16506","Erie","PA","USA"
"2031599646","USTX102325907","DBUSA","1114001793142012450032726499","Seabolt Family Farm","PO Box 1107","79357","Ralls","TX","USA"
"2005466699","USLA100077196","DBUSA","1113255464840712438254260132","West Ouachita Steel & Tank","411 Smith St","71292","West Monroe","LA","USA"
"2028277945","USOR101515327","DBUSA","1114001565415912450031341337","Mill Point Dental","775 Sw Bonnett Way Ste 100","97702","Bend","OR","USA"
"2035833400","USGA100270284","DBUSA","11132549566536212288049","S Grubb Properties","670 Starlight Ln","30342","Atlanta","GA","USA"
"0900690525","USID100128551","DnB","789579414","Kashyap Manohar S Tax Conslt","11315 W Meadowbreeze CT","83669","Star","ID","USA"
"2029209782","USCA101861180","DBUSA","11132553687600186609420","Sanmina","42735 Christy St","94538","Fremont","CA","USA"
"2024064283","USLA100168791","DBUSA","1113400470862712450030064304","Best Life Counseling","900 Ryan St","70601","Lake Charles","LA","USA"
"2011643216","USPA100484100","DBUSA","1114000007022112450000070221","Baldwin Appliance Repair","5340 Keeport Dr","15236","Pittsburgh","PA","USA"
"2032865493","USTX100871483","DBUSA","1114000037810812450010139755","McDonald's","4440 State Highway 6 S","77845","College Station","TX","USA"
"2029688759","USGA100768228","DBUSA","1114001641110511140016411105","24 hour Coin Laundry","2525 Old Concord Rd Se","30082","Smyrna","GA","USA"
"2023358810","USNY100057485","DBUSA","1113254373364812450029744255","Tamarack Hill Trucking","235 Shaver Rd","13843","South New Berlin","NY","USA"
"2010280849","USNE100071325","DBUSA","1113255272017812438249574199","New Look","729 D St","68456","Utica","NE","USA"
"2023820763","USKY100139593","DBUSA","1113256970700511132569707005","Carroll County Treasurer","440 Main St Ste 2","41008","Carrollton","KY","USA"
"2027607493","USPA100903149","DBUSA","1114001440311312450031123014","Paczynski, Richard P, MD","1 Longsdorf Way","17015","Carlisle","PA","USA"
"2025951707","USND100067490","DBUSA","1114001335863811140013358638","3-D Trucking","4910 153rd Ave Nw","58801","Williston","ND","USA"
"2010411821","USVA100257849","DBUSA","1113255417337612438246237208","Hair Gallery of Bassett","3795 Fairystone Park Hwy","24055","Bassett","VA","USA"
"2005430950","USID100028984","DBUSA","1113255456348412450014100852","East Canyon Elementary","18408 Northside Blvd","83687","Nampa","ID","USA"
"2032281850","USIN100530314","DBUSA","1114001806834011140018068340","Professional Group","922 E Wayne St","46617","South Bend","IN","USA"
"2029194462","USCA101760310","DBUSA","1113255279787712450021227732","Napa Street Elementary","19010 Napa St","91324","Northridge","CA","USA"
"0959539128","USIL100461049","DnB","848428017","Town & Country Apartments","2270 W State St","61920","Charleston","IL","USA"
"2028260307","USOH100715085","DBUSA","1114001556899312450031527853","Vinson Vig DDS","1000 W Wallings Rd Ste B","44147","Broadview Heights","OH","USA"
"2007677892","USIL100291679","DBUSA","1113254604981011132546049810","Village Concrete & Construction","PO Box 1342","60304","Oak Park","IL","USA"
"2005920893","USCA100666023","DBUSA","1114000034443012450000344430","Latest Medical","","94303","Palo Alto","CA","USA"
"2011809711","USNC100335339","DBUSA","1113255423229612438253123680","1870 Train Deport","44 W Main St","27360","Thomasville","NC","USA"
"2012126511","USUT100092918","DBUSA","1113400480556911134004805569","Affordable Space Storage","1389 S 320 E","84790","Saint George","UT","USA"
"2010833646","USNC100306719","DBUSA","1113255415304012438223408033","Richard H Wall CPA","3000 Highwoods Blvd","27604","Raleigh","NC","USA"
"2002003277","USVA100046239","DBUSA","1113254649633712438210964184","Michael L Jones DDS","129 University Blvd","22801","Harrisonburg","VA","USA"
"2022406391","USNJ100608019","DBUSA","1114001258418811140012584188","Whippany Lodging","1255 State Hwy 10","07927","Cedar Knolls","NJ","USA"
"2035790863","USCA103756891","DBUSA","1114002210955911140022109559","Anvaiis Boutique","900 Eye St Apt A","93304","Bakersfield","CA","USA"
"0251493887","USVA100711801","DnB","140382776","Tuesday Morning","7550 W Broad St","23294","Richmond","VA","USA"
"0197507296","USMO100516310","DnB","086396185","Tom Daily Contracting","3461 Park Ave","63104","Saint Louis","MO","USA"
"2033518267","USCA102490975","DBUSA","1114001468360912450033991445","West Coast Thunder","7688 Indiana Ave","92504","Riverside","CA","USA"
"0161921074","USPA101104714","DnB","050809963","Lynn's Souvenirs","470 Millcreek Mall","16565","Erie","PA","USA"
"2012481273","USLA100298956","DBUSA","1114000421998811140004219988","Beth Calbourn Interiors","401 Tchoupitoulas St","70130","New Orleans","LA","USA"
"2007862684","USIL100297424","DBUSA","1113254736245811132547362458","Lifesource","11120 W 179th St","60467","Orland Park","IL","USA"
"0251816057","USGA100881793","DnB","140704946","Hq. Consulting","4030 Sweetwater Pkwy","30294","Ellenwood","GA","USA"
"2000422928","USOK100004888","DBUSA","1113254240586012438203486128","Makipour Jahanyar J MD","700 Ne 13th St","73104","Oklahoma City","OK","USA"
"0214915753","USCA103483226","DnB","103804642","Topia","1100 S San Pedro St E06","90015","Los Angeles","CA","USA"
"0158160013","USIA100251278","DnB","047048902","Hillbilly Jack's BBQ","2497 340th Ave","52742","De Witt","IA","USA"
"2029649994","USTX100546062","DBUSA","1113254546379611132545463796","Morris County Juvenile","500 Broadnax St Ste 2","75638","Daingerfield","TX","USA"
"2015612725","USWY100072682","DBUSA","1114000836820511140008368205","Mangine's Cafe","229 Colorado Ave","82609","Casper","WY","USA"
"0185920406","USVA100178381","DnB","074809295","Word of Life","4610 Westgrove CT","23455","Virginia Beach","VA","USA"
"2032739599","USKY100404892","DBUSA","1114001843069811140018430698","Farmboy Maintenance Services","1963 Dimple Rd","42261","Morgantown","KY","USA"
"2017027464","USNC100496506","DBUSA","1114000880944012450021767557","Haines Joe MD","1040 Medical Park Ave","28562","New Bern","NC","USA"
"0196007419","USCO100341948","DnB","084896308","Rose Spa","1511 W Alameda Ave","80223","Denver","CO","USA"
"0193497915","USWA100572631","DnB","082386804","NW Hitch Products","10801 108th Ave SW","98498","Tacoma","WA","USA"
"2008495742","USFL100545282","DBUSA","1113254656371712438211047406","Jacob Seligsohn","4500 Sheridan St","33021","Hollywood","FL","USA"
"2006877234","USFL100435407","DBUSA","1113254451516312438244891840","Employee Leasing Solutions","2101 Vista Pkwy","33411","West Palm Beach","FL","USA"
"2008969080","USCA101000876","DBUSA","1113254980707311132549807073","Pro-A-Line & Brakes","2946 Jamacha Rd Ste C","92019","El Cajon","CA","USA"
"0207759259","USNC100852839","DnB","096648148","Sonny's Bar-B-Q","4301 Monroe Rd","28205","Charlotte","NC","USA"
"2028795973","USVA100570395","DBUSA","1114001609851511140016098515","Central Virginia Electric Cooperative","281 Co Op Ln","24522","Appomattox","VA","USA"
"01059635263","USIL100935480","DnB","948524152","Pegs On Main","49w985 Winters Rd","60151","Maple Park","IL","USA"
"0174487577","USTN100504955","DnB","063376466","Duck Pond Properties","1289 Bunker Hill Rd","38501","Cookeville","TN","USA"
"0283366113","USNM100171072","DnB","172255002","Gold's Gym","4700 San Mateo Blvd Ne","87109","Albuquerque","NM","USA"
"0177805498","USLA100406330","DnB","066694387","Smoothie Rox","1060 Grand Caillou Rd","70363","Houma","LA","USA"
"2032559218","USCA103444218","DBUSA","1114001840043311140018400433","Gabriel Ortega","17925 Texas Ln","93060","Santa Paula","CA","USA"
"0150394223","USNY101695572","DnB","039283112","Nightlife Recording Studio","837 Willis Ave","11507","Albertson","NY","USA"
"2031583910","USTX102320510","DBUSA","1114001770876911140017708769","Pridal","1517 W Carrier Pkwy Ste 138","75050","Grand Prairie","TX","USA"
"0143849039","USFL102282136","DnB","032737928","Vp Elite Autoglass","3811 Highgate Dr","33594","Valrico","FL","USA"
"2029834013","USFL101612113","DBUSA","1114001651004111140016510041","U-Haul","1601 34th St S","33711","Saint Petersburg","FL","USA"
"0262827330","USID100141766","DnB","151716219","Io Dupont","1401 W Idaho St","83702","Boise","ID","USA"
"2033565676","USPA101250883","DBUSA","1114001984494511140019844945","Robbs Home Improvements","145 W Frederick St","17551","Millersville","PA","USA"
"2034757533","USND100044161","DBUSA","1113257854441712450037826920","US Post Office","259 Main St","58384","Willow City","ND","USA"
"0254251688","USMI100699047","DnB","143140577","Ostlund Pest Controlling","7104 Tuscarora Cir","49749","Indian River","MI","USA"
"0176269824","USKY100401800","DnB","065158713","Hagan Construction","1843 Willis Ave","42301","Owensboro","KY","USA"
"0190952808","USFL101767164","DnB","079841697","American Liquor Store","71 Andress St","32208","Jacksonville","FL","USA"
"2012673421","USMI100356569","DBUSA","1113257162346912450014057520","Fastener Coatings","1111 River St","49093","Three Rivers","MI","USA"
"0200644957","USCO101489345","DnB","089533846","Denver Gateway Meridian Equities","9800 S Meridian Blvd","80112","Englewood","CO","USA"
"2003303295","USNY100208061","DBUSA","1113255095614912438247228766","J Doyle Design","36 E 20th St Fl 8","10003","New York","NY","USA"
"2035158804","USMD101379223","DBUSA","1114002090239011140020902390","Woman's Care Center Bldg 2","7621 Belair Rd","21236","Nottingham","MD","USA"
"2012556409","USCT100161459","DBUSA","1114000050781512450000507815","Safety Saves","64 Hampton Rd","06259","Pomfret Center","CT","USA"
"2035810078","USIL101210225","DBUSA","1114000025646612450040814782","Harbison Walker","1400 Huntington Dr","61101","Rockford","IL","USA"
"2008244786","USWI100149640","DBUSA","1113254697646212450019830919","Gill W G","1503 N Summit Ave","53066","Oconomowoc","WI","USA"
"2030030340","USCO100270439","DBUSA","1113255457159412450031988150","Association Of Graduates","3116 Academy Dr","80840","Usaf Academy","CO","USA"
"2000405693","USAR100003406","DBUSA","1113254223082212450020013354","Sanders John","1004 S Boston Ave","72801","Russellville","AR","USA"
"2025334379","USCA102384450","DBUSA","1114001346833211140013468332","True","644 Pollasky Ave","93612","Clovis","CA","USA"
"2006753881","USFL100426196","DBUSA","1114000039436312450016383195","Mnm Construction","705 Jerry Smith Rd","33527","Dover","FL","USA"
"2014997997","USMA100362415","DBUSA","1114000086974711140000869747","Rapid Realty","25 River St","02139","Cambridge","MA","USA"
"2010957090","USCA101223961","DBUSA","1113255451683612438252351220","Speedway Engineering","13040 Bradley Ave","91342","Sylmar","CA","USA"
"2031945267","USAZ100544221","DBUSA","1114001776713212450032562214","Burnett Family Farm","4422 N Palisade Dr","85749","Tucson","AZ","USA"
"0160320473","USVA100535221","DnB","049209362","Dominion Rehab Equipment","6820 Atmore Dr","23225","Richmond","VA","USA"
"2013211083","USPA100543347","DBUSA","1114000366306711140003663067","Dar's Convenience Store","709 Chartiers Ave","15136","Mc Kees Rocks","PA","USA"
"2027437038","USNY101330747","DBUSA","1114001445800512450031140306","Aurora Lao Carino MD","131 County House Rd Ste 107","12545","Millbrook","NY","USA"
"2011963991","USPA100496455","DBUSA","1114000052506312450000525063","Shippensburg Church of the Nazarene","415 E Orange St","17257","Shippensburg","PA","USA"
"2027422563","USOR101514036","DBUSA","1114001422049511140014220495","Cascadia Behavioral Healthcare","4212 Se Division St","97206","Portland","OR","USA"
"2013044448","USMS100108117","DBUSA","1114000193134912450013140591","Fascinations","214 Main St N","38821","Amory","MS","USA"
"2009091328","USFL100579586","DBUSA","1113254907579312438247950502","La Petite Academy","7511 Paula Dr","33615","Tampa","FL","USA"
"2008041273","USNC100227360","DBUSA","1113254658603012438211078819","Jamie Forbes Lisa","301 S Greene St","27401","Greensboro","NC","USA"
"0213463639","USTX100265063","DnB","102352528","Mary Kay Cosmetics","7601 Trenton Ave","79424","Lubbock","TX","USA"
"2032318100","USLA100316559","DBUSA","1114001801480112450032508482","Michele A Leech LMT","","70113","New Orleans","LA","USA"
"2035369222","USWA100736417","DBUSA","1114002105768512450042722768","Maria Martinez, DO","202 N Division St Ste 300","98001","Auburn","WA","USA"
"2024893605","USKY100266688","DBUSA","1114001311864411140013118644","Envision Dance Company","5704 Outer Loop","40219","Louisville","KY","USA"
"2003797329","USVA100092316","DBUSA","1113255118779212438245395261","Fisher Packng","31 Towana Rd","23226","Richmond","VA","USA"
"2014280242","USVA100348708","DBUSA","1113255160085412438241973573","Beach House","4040 Cox Rd Ste D","23060","Glen Allen","VA","USA"
"0175690279","USAZ100597776","DnB","064579168","NCI Info Systems","655 N Garden Ave C","85635","Sierra Vista","AZ","USA"
"2002495209","USNY100156004","DBUSA","1113254767073112438248383862","Luren Medical Dental & Foot","57 E Mount Eden Ave","10452","Bronx","NY","USA"
"2003559316","USNC100097977","DBUSA","1113254974746812450016728856","Cascade Refining","4436 Park Rd","28209","Charlotte","NC","USA"
"2004787899","USCA100531191","DBUSA","1114000091811411140000918114","Cove West","335 S Hale Ave","92831","Fullerton","CA","USA"
"0187950953","USVA100156094","DnB","076839842","Race Supply Warehouse","600 Copeland Dr","23661","Hampton","VA","USA"
"0117051849","USFL101940475","DnB","005940738","Behavioral Health of the Palm Beaches","509 US Highway 1","33403","Lake Park","FL","USA"
"2032555855","USCA103473047","DBUSA","1114001834676411140018346764","Pacific Electroysis","1510 Front St","92101","San Diego","CA","USA"
"2028002927","USNC100661894","DBUSA","1114001532362911140015323629","Utility Solutions","2030 Main Ave Nw","28601","Hickory","NC","USA"
"2004146853","USDE100013879","DBUSA","1113255130083511132551300835","Hallmark","3236 Kirkwood Hwy","19808","Wilmington","DE","USA"
"2029214260","USTX101185535","DBUSA","11132549301753186478129","Martin Marietta Materials Southwest Division","5710 W Hausman Rd Ste 121","78249","San Antonio","TX","USA"
"2000551278","USVA100012602","DBUSA","1113254176111612438202507752","Moran Barbara A","8501 Arlington Blvd Ste 300","22031","Fairfax","VA","USA"
"0149072284","USOH100815153","DnB","037961173","Aka Construction","1694 Pawnee Dr","45385","Xenia","OH","USA"
"0145904160","USTX101904930","DnB","034793049","Dr Bluhm Enterprises","5389 Freeman Rd","76249","Krum","TX","USA"
"2034381604","USPA100358697","DBUSA","1113254765926412450042079144","Kraft & Ferencz Dental Associates","1112 Pennsylvania Ave","17404","York","PA","USA"
"0161778077","USSC100360624","DnB","050666966","Middle Child Photography","997 Dunrobin Ln","29588","Myrtle Beach","SC","USA"
"0177711849","USAK100117615","DnB","066600738","Haugh Patrick","2550 Denali St","99503","Anchorage","AK","USA"
"01052054062","USAZ100410134","DnB","940942951","Aldridge Insurance Services","349 Lake Havasu Ave S","86403","Lake Havasu City","AZ","USA"
"2017844550","USOH100547678","DBUSA","1114000849473812450021914114","David W Hauswirth MD","6760 Avery Rd","43017","Dublin","OH","USA"
"0149699160","USOH100986266","DnB","038588049","Serenity Garden","2411 Trailard Dr","44094","Willoughby Hills","OH","USA"
"2008642792","USOH100269213","DBUSA","1113254831371812438245477331","Sheryl's Beauty Shop","116 E Baird St","43357","West Liberty","OH","USA"
"2028042250","USMA100540731","DBUSA","1114001546599212450031267576","Alfred W Heinser MD","100 Boston Rd Ste 4","01450","Groton","MA","USA"
"0173585612","USWA100621574","DnB","062474501","Appliance Refinishing & Repair","9550 Silverdale Way NW","98383","Silverdale","WA","USA"
"0181134170","USAZ100449736","DnB","070023059","Drink Deal Daily","4927 E Coronado Rd","85008","Phoenix","AZ","USA"
"2028158877","USPA100955710","DBUSA","1114001543025312450031252609","Dudnick, Robert S, MD","5401 Old York Rd Ste 202","19141","Philadelphia","PA","USA"
"2002588953","USNV100020941","DBUSA","1113254979350912438250614582","Postal Express","774 Mays Blvd Ste 10","89451","Incline Village","NV","USA"
"2026934864","USIL100183480","DBUSA","1113257263175312450031011504","Hello Chinese","1025 Canyon Run Rd","60565","Naperville","IL","USA"
"2004433341","USCA100491284","DBUSA","1113257637781911132576377819","Re-Elect Brian Bilbray-Congress","970 Seacoast Dr","91932","Imperial Beach","CA","USA"
"0112922438","USWI100511406","DnB","001811327","Valentin Clinic SC","1220 Dewey Ave","53213","Milwaukee","WI","USA"
"2027421020","USNY101369428","DBUSA","1114001494050511140014940505","Z 2000 Beauty Spa","17325 Jamaica Ave","11432","Jamaica","NY","USA"
"2028659004","USIL100921838","DBUSA","1114001485823111140014858231","Alex's Auto","5209 W Lake St Ste 1","60160","Melrose Park","IL","USA"
"2032616556","USIL101164669","DBUSA","1114001891160411140018911604","Kougbani Sebou Marceline","801 Illini Dr","61282","Silvis","IL","USA"
"2002725071","USWI100051383","DBUSA","1113254756075012438248668356","Linn Matthew J Attorney At Law","2327 N Murray Ave","53211","Milwaukee","WI","USA"
"","USCA102642467","DAT_synup","","","1030 La Bonita Dr #316","92078","San Marcos","California","USA"
"2009535767","USAR100088681","DBUSA","1113254982235211132549822352","Studio Salon & Day Spa","710 Tiger Blvd","72712","Bentonville","AR","USA"
"2035260625","USTX102540889","DBUSA","1114002132091611140021320916","Timothy Kahle Solorio","459 Private Road 2625","76234","Decatur","TX","USA"
"2006665176","USTX100468142","DBUSA","1114000532154812450019618206","Underwood Development Company","109 Spanish Vlg","75248","Dallas","TX","USA"
"2030407709","USMN100493544","DBUSA","1114001672473511140016724735","Plm","302 Hardman Ave N","55075","South Saint Paul","MN","USA"
"2034328833","USCA101088981","DBUSA","1113255176270012450039348194","Satellite Av Services","4021 Alvis Ct Ste 5","95677","Rocklin","CA","USA"
"01056167822","USIL100934165","DnB","945056711","Fifield Companies","222 S Riverside Plz","60606","Chicago","IL","USA"
"2033718481","USMS100092132","DBUSA","1113255247937212450033837864","NY Beauty","3039 Goodman Rd W","38637","Horn Lake","MS","USA"
"2007861540","USMA100186601","DBUSA","1113254561045612438246825003","Hurst Auto","225 Ward Hill Rd","01331","Athol","MA","USA"
"2024149087","USMT100069661","DBUSA","1114000778280212450030012603","JT Trucking","34706 County Road 118","59270","Sidney","MT","USA"
"2004287007","USTX100296817","DBUSA","1113255379920112438253180704","Tim's Concrete Products","717 E Blackjack St","76446","Dublin","TX","USA"
"2000711784","USMO100013359","DBUSA","1113254213397512438203048802","George B Restovich","168 N Meramec Ave Ste 400","63105","Saint Louis","MO","USA"
"2022908466","USMN100254201","DBUSA","1113254356535812438244744074","Educational Service Center","11200 93rd Ave N","55369","Osseo","MN","USA"
"2021890786","USTX101459455","DBUSA","1114001212596011140012125960","Lucio Eddie State Rep","","78520","Brownsville","TX","USA"
"2032513586","USTX102372624","DBUSA","1114001813753211140018137532","140 Burger Boyz","","78011","Charlotte","TX","USA"
"2035442177","USTX102553708","DBUSA","1114002157384311140021573843","3c Industrial","12113 W Interstate 10","78124","Marion","TX","USA"
"0133389730","USTX101784817","DnB","022278619","Westheimer Crossing","3939 Hartsdale Dr","77063","Houston","TX","USA"
"0121127562","USCA102978504","DnB","010016451","Health Analysis","2280 Diamond Blvd","94520","Concord","CA","USA"
"2034704481","USNJ100866690","DBUSA","1113257045878712450034983643","County Line Pharmacy","10 Bloomfield Ave Ste 3","07058","Pine Brook","NJ","USA"
"2019700766","USCO100283491","DBUSA","1114001010414211140010104142","Village Townhomes Building A","597 Sawatch Dr","81632","Edwards","CO","USA"
"2011308886","USFL100709031","DBUSA","1113257762234112450014209122","Stone Age Designs","444 W New England Ave Ste 117","32789","Winter Park","FL","USA"
"0133710043","USMD101314563","DnB","022598932","Tate Dodge Chrysler Jeep","7401 Ritchie Hwy","21061","Glen Burnie","MD","USA"
"2000006836","USNM100000107","DBUSA","1113254214089612438203058712","Keri Black","2121 Juan Tabo Blvd Ne","87112","Albuquerque","NM","USA"
"0140218594","USCA102958819","DnB","029107483","Aggressive Labs","1533 7th St","93657","Sanger","CA","USA"
"2023939576","USIL100505552","DBUSA","1113257479051612450030031684","ML Design Studio","333 N Oakley Blvd Ste 203","60612","Chicago","IL","USA"
"2012559508","USCO100228539","DBUSA","1114000051672111140000516721","Screenmobile","35 Sylvestor St","80129","Littleton","CO","USA"
"2029459837","USCA100025012","DBUSA","1113254167585912450026855314","UC San Diego","9350 Campus Point Dr","92037","La Jolla","CA","USA"
"0227664961","USFL102044929","DnB","116553850","William C Nielson DDS","1060 W State Rd","32750","Longwood","FL","USA"
"0233814416","USWA100655211","DnB","122703305","Global Asbestos Abatement Services","23321 57th Ave SE","98072","Woodinville","WA","USA"
"2026450636","USOR100151819","DBUSA","1113255442075611132554420756","Assembly of God Church","1014 Center St","97630","Lakeview","OR","USA"
"0147510302","USNY101635202","DnB","036399191","Law Office Of Jennifer L","450 E Park Ave","11561","Long Beach","NY","USA"
"2028337761","USMN100393890","DBUSA","1114001561387112450031325853","Nathan T Beerling MD","14700 28th Ave N Ste 20","55447","Minneapolis","MN","USA"
"2024023288","USGA100478139","DBUSA","1114000819255712450029846775","Arrwood Construction","Rr 2 Box 2351t","30538","Eastanollee","GA","USA"
"0732677487","USIL101069607","DnB","621566376","Accounting & Tax Service","111 E Irving Park Rd","60172","Roselle","IL","USA"
"0129895388","USCA102694661","DnB","018784277","Wash Master","1651 Palm CT","92223","Beaumont","CA","USA"
"2012550323","USMA100300549","DBUSA","1114000142098612450012550894","Match Computer","","02360","Plymouth","MA","USA"
"01073382796","USTX101920914","DnB","962271685","American Optometric Student","4901 Calhoun Rd","77204","Houston","TX","USA"
"2034394338","USTN100304409","DBUSA","1113255295609212450039867987","Long Hollow Baptist Church","1200 Hartsville Pike","37066","Gallatin","TN","USA"
"2004806089","USAZ100081692","DBUSA","1113255419549912438248071621","Leisure Laundry","2221 N Park Dr","86047","Winslow","AZ","USA"
"2010439648","USCO100192600","DBUSA","1113255426137212438241328712","Amway-Affiliated Ibo Wegeman Associates","1978 Brookdale Dr","80918","Colorado Springs","CO","USA"
"2000804531","USKY100010023","DBUSA","1113254344039212438253407992","Triple K Mulch","229 Highway 976","41472","West Liberty","KY","USA"
"2008273752","USIL100313692","DBUSA","1113254734972611132547349726","Konishi Orthodontics","2223 W Schaumburg Rd","60194","Schaumburg","IL","USA"
"2013580659","USCA101527958","DBUSA","1114000667725412450020692451","Sabena Sarma","","92780","Tustin","CA","USA"
"2016663050","USNH100084042","DBUSA","1114000832672811140008326728","Minnewawa Mini Storage","14 Terrace St","03455","Marlborough","NH","USA"
"2028141060","USNY101380746","DBUSA","1114001535933112450031714966","Nancy Freeborough DVM","120 Julian Pl Ste F","13210","Syracuse","NY","USA"
"0234911809","USAL100429012","DnB","123800698","Bethlehem Baptist Church","1299 County Road 25","36310","Abbeville","AL","USA"
"2007984156","USOR100113096","DBUSA","1113254622320112438241023349","Albert Wedam","2504 Shasta Way","97601","Klamath Falls","OR","USA"
"2035146515","USMD101375894","DBUSA","1114002040319811140020403198","Serena & Lily Design Shop","7121 Bethesda Ln","20814","Bethesda","MD","USA"
"2033764578","USMA100519438","DBUSA","1114001361299712450034016528","Law Office Of William Asci","7 Main St","02571","Wareham","MA","USA"
"2021591823","USCT100107008","DBUSA","1113254602842112450029286727","Community Residences","75 N Acre Pl","06614","Stratford","CT","USA"
"0185717004","USGA100561119","DnB","074605893","Reed Logistics","15 Jonesboro St","30253","McDonough","GA","USA"
"0125220505","USNJ100794459","DnB","014109394","Chasar Kathleen Scott","903 Parkway Ave","08618","Ewing","NJ","USA"
"2016715665","USPA100689653","DBUSA","1114000850854112450021480141","Dillingham Timothy R MD","3400 Spruce St Fl 3","19104","Philadelphia","PA","USA"
"0164140109","USTN100637506","DnB","053028998","Nhc Eastern Region","1011 W Madison Ave","37303","Athens","TN","USA"
"2035837630","USOH100337826","DBUSA","11132553515739211419112","Thrivent Financial","337 E Washington St Ste C","44256","Medina","OH","USA"
"2024651748","USCA102333669","DBUSA","1114001234255512450030362128","Cubbies Chicago Style Pizza","5701 Young St Ste 401","93311","Bakersfield","CA","USA"
"2032210993","USPA101185515","DBUSA","1114001692662412450032933329","Gordon Shaw MD","700 High St","17701","Williamsport","PA","USA"
"2035707261","USMA100594420","DBUSA","1114002193327011140021933270","VDL Dental Prosthetics","65 Plain St","01510","Clinton","MA","USA"
"2004966110","USNH100025594","DBUSA","1113254339426411132543394264","All Hours Mobile Notary","40 Pine St","03867","Rochester","NH","USA"
"2016492453","USPA100485175","DBUSA","1113257191373412450021441568","Fran's Drive In Dairy Bar","698 N State St","17846","Millville","PA","USA"
"2007200211","USVA100174573","DBUSA","1114000150281111140001502811","J E S Towing and Recovery","1125 W Main St","24141","Radford","VA","USA"
"2011472574","USFL100718863","DBUSA","1113257702195411132577021954","Servicoregs","7510 Nw 72nd Ave","33166","Miami","FL","USA"
"2013881711","USCA101562497","DBUSA","1114000598786511140005987865","Step One Shoes","1440 S Anaheim Blvd","92805","Anaheim","CA","USA"
"0198666202","USCA103063840","DnB","087555091","Khoe Dep USA","621 Tully Rd","95111","San Jose","CA","USA"
"2030647402","USCA102960855","DBUSA","1114001660313211140016603132","United Methodist Center","110 S Euclid Ave","91101","Pasadena","CA","USA"
"0952138286","USOR101591406","DnB","841027175","Portland Document Scanning","25 NW 23rd Pl","97210","Portland","OR","USA"
"2001370344","USKY100017086","DBUSA","1113254494946511132544949465","Child Support Enforcement","59 E Main St","41311","Beattyville","KY","USA"
"0906776821","USIA100271828","DnB","795665710","Hair Benders","222 S 15th St","51632","Clarinda","IA","USA"
"2026344568","USTX101594163","DBUSA","1114001407764712450030851569","Khan, Humair, MD","700 University Blvd","77550","Galveston","TX","USA"
"2001103160","USMI100031282","DBUSA","1113254438230512438244988075","Esp Resources","1263 Arbor Ave","48162","Monroe","MI","USA"
"2033771311","USUT100250849","DBUSA","1114001996605511140019966055","Life Cycle Gardens","296 E 400 S","84720","Cedar City","UT","USA"
"2008437558","USFL100542390","DBUSA","1113254798614612438248134402","Liberty Tax Service","4600 Mobile Hwy Ste 107","32506","Pensacola","FL","USA"
"0113790394","USNY101564030","DnB","002679283","Piedmont Law Firm","376 Broadway","12866","Saratoga Springs","NY","USA"
"2004378091","USNM100123486","DBUSA","1113255405667712438240926977","Apulln Savy","151 Woodward Ave Sw","87102","Albuquerque","NM","USA"
"0188403592","USGA100521235","DnB","077292481","Two Sunshine Fitness Columbus","5596 Milgen Rd","31907","Columbus","GA","USA"
"0191607214","USMA100618531","DnB","080496103","Holiday Farm","100 Central St","01503","Berlin","MA","USA"
"2003110113","USAK100011760","DBUSA","1113254818038812438241500349","Arctic Paws","1210 E 70th Ave","99518","Anchorage","AK","USA"
"2034732319","USMA100178714","DBUSA","1113254419473112450039959960","Savers","135 Memorial Ave","01089","West Springfield","MA","USA"
"2035416352","USME100150023","DBUSA","1114002114242611140021142426","Meredith Howe Lmft","125 Presumpscot St Unit 9","04103","Portland","ME","USA"
"2013272823","USNJ100403824","DBUSA","1114000560930412450019671433","Diamond Elite Softball Training","1658 Route 9","08755","Toms River","NJ","USA"
"2030856323","USMO100563210","DBUSA","1114001704366612450032226499","Dill Family Farm","57 Chicago Rd","65644","Elkland","MO","USA"
"2026970463","USAZ100379960","DBUSA","1114001461938911140014619389","Foothills Apartments","5441 N Swan Rd","85718","Tucson","AZ","USA"
"0133648085","USCA100424083","DnB","022536974","Legacy Homes-Horizon","10610 Stone Haven Dr","93306","Bakersfield","CA","USA"
"2012753065","USFL100815029","DBUSA","1114000470098511140004700985","Power Source Electric Unlimited","1607 Lakelet Loop","32765","Oviedo","FL","USA"
"0180041945","USMA100646918","DnB","068930834","Kali B's Wings and Things","166 Avenue A","01376","Turners Falls","MA","USA"
"0171592836","USTN100479675","DnB","060481725","Physicians Financial Partners","312 Allen Pl","37205","Nashville","TN","USA"
"2010856167","USMO100202706","DBUSA","1113255468086112438250562101","Pocock Heating & Cooling","10316 E Kentucky Rd","64053","Independence","MO","USA"
"2034706637","USAR100113492","DBUSA","1113257617170912450038914462","Pulaski County Farm Bureau","110 Smarthouse Way","72114","North Little Rock","AR","USA"
"2007620490","USGA100232513","DBUSA","1113254490424312438247139476","Jackson Paving","13161 Veterans Memorial Hwy","30134","Douglasville","GA","USA"
"2030817177","USNC100702816","DBUSA","1114001643850212450032167488","Downtown Jr's 23 Sports Grill","105 E Main St","27027","Mayodan","NC","USA"
"2011630069","USNY100715902","DBUSA","1113400249619111134002496191","Subway","294 Main St","12508","Beacon","NY","USA"
"0156297249","USMA100650528","DnB","045186138","Paulos Salon","309 Front St","01013","Chicopee","MA","USA"
"2011409455","USPA100475291","DBUSA","1113256944400812438242552137","B Spa Skin Care Center & Day Spa","76 Mary St","18901","Doylestown","PA","USA"
"2021258419","USNC100488662","DBUSA","1114000844846612450029194248","Langtree Upper School","185 W Waterlynn Rd","28117","Mooresville","NC","USA"
"2035216583","USFL100922840","DBUSA","1114000663294512450044797534","Newtech Wholesalers","13980 Nw 20th Ct","33054","Opa Locka","FL","USA"
"0473525793","USIA100272037","DnB","362414682","Loafer's Corner Larow's Cafe","401 3rd St N","50590","Swea City","IA","USA"
"2021321649","USNC100570538","DBUSA","1114001184671211140011846712","Credit Counseling Centers of America","","27101","Winston Salem","NC","USA"
"0213541092","USWI100481348","DnB","102429981","Tiny Scholars Preschool Academy","1912 E Rawson Ave","53154","Oak Creek","WI","USA"
"2023199104","USTX101013564","DBUSA","1114000670314312450029611333","Room For More","2107 Shiloh Dr","78045","Laredo","TX","USA"
"2027270777","USCA102526940","DBUSA","1114001462045311140014620453","Fine Art Bronze","5514 Alhambra Ave","90032","Los Angeles","CA","USA"
"0145528782","USLA100355158","DnB","034417671","Kevin W McGee","1459 Ward Rd","71463","Oakdale","LA","USA"
"2008694179","USCA100969769","DBUSA","1113254803147312438243930939","Crummitt & Associates","525 E Seaside Way Ste 101c","90802","Long Beach","CA","USA"
"0195165901","USTN100635890","DnB","084054790","Christus Gardens","510 River Rd","37738","Gatlinburg","TN","USA"
"2005477734","USPA100680247","DBUSA","1114000022597611140000225976","Flat Iron Ventures","318 E North St","18018","Bethlehem","PA","USA"
"2006243749","USNJ100190072","DBUSA","1113254388954311132543889543","Java City Cherry Hill Public","1100 Kings Hwy N","08034","Cherry Hill","NJ","USA"
"2027299758","USME100109399","DBUSA","1114001451791811140014517918","Gsi","114 Shore Rd","04679","Southwest Harbor","ME","USA"
"2009693792","USNY100597446","DBUSA","1113255020017312438244133695","David Ziff Cooking","184 E 93rd St","10128","New York","NY","USA"
"2010882191","USMI100307448","DBUSA","1113255198411212438251253880","Ridge & Kramer Auto Parts","3460 Gull Rd","49048","Kalamazoo","MI","USA"
"2020559137","USNJ100566223","DBUSA","1114001079482611140010794826","TV Repairs R Us We Dont Repair Broken Screens","","08054","Mount Laurel","NJ","USA"
"2023943525","USAL100231418","DBUSA","1114001294275011140012942750","Designer Millwork","185 Richman Dr","35952","Altoona","AL","USA"
"0281939929","USPA101038720","DnB","170828818","Sally Rennay Beauty Salon","105 N 3rd St","17901","Pottsville","PA","USA"
"2035690847","USOR101558507","DBUSA","1114002181079711140021810797","simon max hill casting","1121 N Loring St Ste 108","97227","Portland","OR","USA"
"0226199918","USWY100059547","DnB","115088807","Performance & Off Road Wyoming","103 Fremont Way","82520","Lander","WY","USA"
"0151879172","USNY101516177","DnB","040768061","Oval Tennis","25 Lovell St","10540","Lincolndale","NY","USA"
"2010841816","USMI100306829","DBUSA","1113255399116512438247702168","Kingsley Lumber","311 S Brownson Ave","49649","Kingsley","MI","USA"
"2013857697","USOH100430050","DBUSA","1114000525272812450019610155","ABLE","408 9th St Sw","44707","Canton","OH","USA"
"2034958507","USPA101281409","DBUSA","1114002077706911140020777069","Imagine Further Collective","857 N Woodstock St","19130","Philadelphia","PA","USA"
"2030106040","USTX102197058","DBUSA","1114001675498411140016754984","Sweet rainbow cafe","4914 Luella Ave","77536","Deer Park","TX","USA"
"0215750905","USIN100546964","DnB","104639794","Associated Dealers Supply","1554 N County Road 0 Ew","46041","Frankfort","IN","USA"
"2031266876","USNC100769790","DBUSA","1114001733344711140017333447","A Cat In The Attic Treasures & Treats Antiques Towne Square","163 Wall St","28786","Waynesville","NC","USA"
"0712633154","USMD100080085","DnB","601522043","Styles","3863 Branch Ave","20748","Temple Hills","MD","USA"
"0904151134","USMI100786441","DnB","793040023","Supercuts","401 Baldwin St","49428","Jenison","MI","USA"
"2007996056","USOR100113843","DBUSA","1113254643422112438210886302","John G Crawford Attorney at Law","2400 Sw 4th Ave","97201","Portland","OR","USA"
"2034198993","USNV100259447","DBUSA","1114002010772911140020107729","Myra Altamira","2620 Regatta Dr Ste 120","89128","Las Vegas","NV","USA"
"0150730711","USTX100329506","DnB","039619600","Cypress Plaza III","1610 W Park Ave","77630","Orange","TX","USA"
"2009167365","USMI100255931","DBUSA","1113255031102112438244721184","Eddie Bauer Outlet","12150 S Beyer Rd Ste 20","48415","Birch Run","MI","USA"
"2007243544","USGA100219151","DBUSA","1113254486380112438245130862","Faith Real Estate Service","181 Forest Pl","30281","Stockbridge","GA","USA"
"2006757268","USNE100046323","DBUSA","1113254440815412438252093035","S & J Enterprises","4661 S 174th Ave","68135","Omaha","NE","USA"
"2030949275","USKS100308793","DBUSA","1114001708862412450032271457","Shea Family Farm","2522 Rd 9","67743","Levant","KS","USA"
"2028723274","USOR101537022","DBUSA","1114001595396611140015953966","Foreign & Domestic Affairs Automotive Service","1040 Se Clinton St","97202","Portland","OR","USA"
"2015823035","USMO100300176","DBUSA","11132545271116155840335","Crystal City Public Works","130 Mississippi Ave","63019","Crystal City","MO","USA"
"0160799016","USCA103183855","DnB","049687905","City Lights Realty","14758 Whittier Blvd","90605","Whittier","CA","USA"
"2018425176","USCA102074239","DBUSA","1114000938839712450022021826","Perfectly Maid","5201 Great America Pkwy Ste 320","95054","Santa Clara","CA","USA"
"2011805640","USIN100207135","DBUSA","1113255422175012438245774073","Gemini Salon","2578 Charlestown Rd","47150","New Albany","IN","USA"
"2003633952","USCA102020095","DBUSA","1113255380484612438245720826","Garden Path Ministries","22731 Canyon Lake Dr S","92587","Menifee","CA","USA"
"0918835223","USCA101741285","DnB","807724112","DataTrace","4875 Viewridge Ave","92123","San Diego","CA","USA"
"2029138806","USCA101250695","DBUSA","1113255280069512450022319536","All Souls Catholic Church","315 Walnut Ave","94080","South San Francisco","CA","USA"
"2002900342","USOR100273511","DBUSA","1113254310712211132543107122","3Rs Construction","3629 Kashmir Way Se","97317","Salem","OR","USA"
"2023673582","USVT100031198","DBUSA","1113255518695312450030163245","Red Carpet Beauty Salon","16 Richard Ter","05403","South Burlington","VT","USA"
"2007553092","USMA100381558","DBUSA","1113254522300611132545223006","Greenfield Civil Defense","412 Main St","01301","Greenfield","MA","USA"
"2032728177","USCO101576385","DBUSA","1114001813614811140018136148","Ent Credit Union","243 N College Ave","80524","Fort Collins","CO","USA"
"2000385271","USOR100005585","DBUSA","1113254210059112438202992804","Philip Walter","4455 Ne Highway 20","97330","Corvallis","OR","USA"
"2034429602","USOH100033673","DBUSA","1113254360838412450037892776","County of Allen","3640 Spencerville Rd","45805","Lima","OH","USA"
"0979782826","USFL101751055","DnB","868671715","Fernando's Piano Service","11610 Shady Tree Pl","33624","Tampa","FL","USA"
"2026576777","USIA100123934","DBUSA","1114001421828911140014218289","China Cafe","5969 Merle Hay Rd Ste B","50131","Johnston","IA","USA"
"2013543650","USMO100399153","DBUSA","1114000560539212450019671389","Davis Trailers","2600 Nw Prairie View Rd Ste G","64079","Platte City","MO","USA"
"0192643651","USFL101935187","DnB","081532540","National Blu Logistics","1201 NW 3rd Ave","33136","Miami","FL","USA"
"0900389375","USNJ100245749","DnB","789278264","Revathi Viswanathan MD","122 Market St","07055","Passaic","NJ","USA"
"2023227455","USTX101500216","DBUSA","1114001285950611140012859506","BLEU DENTISTRY","3607 Oak Lawn Ave Ste 250","75219","Dallas","TX","USA"
"2027335159","USNY100216839","DAT_uberall","","","2799 112","11763","Medford","NY","USA"
"0120677052","USSC100353246","DnB","009565941","Harmony United Methodist Church","36 Harmony Rd","29692","Ware Shoals","SC","USA"
"2034384472","USIL100339563","DAT_uberall","","","3502 Maryville Road","62040","Granite City","IL","USA"
"2027973441","USNC100659359","DBUSA","1114001522845311140015228453","Roger A Johnson Realtor","813 Main Ave Sw","28602","Hickory","NC","USA"
"0185245651","USNE100181815","DnB","074134540","Body Shop","10000 California St","68114","Omaha","NE","USA"
"2028995526","USMN100406611","DBUSA","1114001628546311140016285463","Board & Batten","16275 Ipava Ave","55044","Lakeville","MN","USA"
"2031853552","USIN100244651","DBUSA","1113254278884812450023229667","Donatos Pizza","5835 Madison Ave","46227","Indianapolis","IN","USA"
"0211314509","USIN100448468","DnB","100203398","New Concept Homes","314 W South St","46714","Bluffton","IN","USA"
"2031781611","USGA100995946","DBUSA","1114001778413812450032579219","Mitchell Family Farm","717 Bethel Church Rd","31778","Pavo","GA","USA"
"2035471450","USNY101998172","DBUSA","1114002141887412450045050952","Prt Positive Reinforcement Trainers","2 Jo Ann Ct","12205","Albany","NY","USA"
"2001384779","USPA100862951","DBUSA","1113254224546111132542245461","United Anesthesia Service","130 S Bryn Mawr Ave","19010","Bryn Mawr","PA","USA"
"0241133993","USVA100775508","DnB","130022882","Rose's","US Rte 29 At 703","24531","Chatham","VA","USA"
"0173229956","USMA100668018","DnB","062118845","CSC Automobile Detailing","86 Washington St","01746","Holliston","MA","USA"
"2029661048","USRI100077382","DBUSA","1114001641620711140016416207","Anchor Point Early Learning Academy","104 Greenville Rd","02896","North Smithfield","RI","USA"
"2004194849","USIN100291474","DBUSA","1113255141052912438251876141","ServiceMaster Clean","1408 N Heidelbach Ave","47711","Evansville","IN","USA"
"2000738372","USWA100021331","DBUSA","1113254207277412438202953378","Whetstone, Jane M - Jane M Whetstone","1660 S Columbian Way","98108","Seattle","WA","USA"
"0722401312","USNY101485549","DnB","611290201","Manhattan Pressurized Walls In","29 Booth Rd","10918","Chester","NY","USA"
"2035869628","USNC100071612","DBUSA","1113254704246111132547042461","Lucia Chiropractic","3275 Robinhood Rd","27106","Winston Salem","NC","USA"
"0169013095","USIL100958701","DnB","057901984","Zio Brothers","2606 Bayberry CT","60435","Joliet","IL","USA"
"2022508247","USDC100077621","DBUSA","1114001232900911140012329009","Pearl St Club","33 Pearl St Sw","20024","Washington","DC","USA"
"0474839733","USIA100128068","DnB","363728622","Harper Gun Repair","1967 260th Ave","50213","Osceola","IA","USA"
"2008654005","USNV100068104","DBUSA","1113254758809612438243396160","Cleanroom Management Associates","415 Old Washoe Cir","89704","Washoe Valley","NV","USA"
"2001489734","USNJ100044993","DBUSA","1113254445581211132544455812","Imperial Construction","129 Renshaw Ave","07017","East Orange","NJ","USA"
"2010786130","USCA101862390","DBUSA","1113255380895712438252311665","Southwest Valve & Equipment","14081 Yorba St Ste 109","92780","Tustin","CA","USA"
"2009668565","USNJ100298132","DBUSA","1113255114243512438245549394","Fox Moulding","245 4th St Ste 5","07055","Passaic","NJ","USA"
"2028491469","USCA102564192","DBUSA","1114001585208212450031414721","Marc A Raj DO","3421 Villa Ln Ste 2b","94558","Napa","CA","USA"
"0136437339","USCA103320527","DnB","025326228","Merendero Tropical","4944 Slauson Ave","90270","Maywood","CA","USA"
"2010048515","USCA101120048","DBUSA","1113254992200412438252349221","Speedpress","2270 Camino Vida Roble Ste H","92011","Carlsbad","CA","USA"
"2033991084","USNY101968180","DBUSA","1114001891340211140018913402","Z & J New York 99 Cents Up Store","8034 Jamaica Ave","11421","Woodhaven","NY","USA"
"0151407271","USTX102042481","DnB","040296160","Kay Yos Clubhouse","2500 Miller Ave","76105","Fort Worth","TX","USA"
"2011662887","USDC100040967","DBUSA","1113400308331111134003083311","Shake Shack","40 Massachusetts Ave Ne","20002","Washington","DC","USA"
"2032149492","USFL102131708","DBUSA","1114001724640711140017246407","Extended Stay America","4360 Lakeland Park Dr","33809","Lakeland","FL","USA"
"2027967290","USIL100905676","DBUSA","1114001590898812450031435783","Kathya M Chartre MD","2077 N Clybourn Ave","60614","Chicago","IL","USA"
"2015596679","USCA101751379","DBUSA","1114000835315211140008353152","Jersey Mike's Subs","1213 State St Ste A","93101","Santa Barbara","CA","USA"
"2034145578","USKS100327036","DBUSA","1114001911073911140019110739","Mn Eye","9401 Nall Ave Ste 101","66207","Overland Park","KS","USA"
"2035682373","USNJ100195213","DBUSA","1114000513965612450042106839","Back In Time Auto Upholstery","9 Lippincott Ln","08060","Mount Holly","NJ","USA"
"0238083115","USNY101705745","DnB","126972004","Passage","365 Merrick Ave","11566","Merrick","NY","USA"
"2022462993","USFL101280395","DBUSA","1114000126896512450029353691","Sessums Law Group P.A","3014 W Palmira Ave Ste 202","33629","Tampa","FL","USA"
"2001599986","USFL100094869","DBUSA","1113254623461712438250760134","Professional Physical Therapy","1316 S Ridgewood Ave","32132","Edgewater","FL","USA"
"2031802218","USOH100965670","DBUSA","1114001789297512450032688054","Laing Family Farm","3201 Ayers Rd","43447","Millbury","OH","USA"
"2002715059","USNM100020890","DBUSA","1113254839125511132548391255","Rhythm of The Seasons Shiatsu & Reiki","1331 Maestas Rd","87571","Taos","NM","USA"
"2017819904","USSC100194899","DBUSA","1114000749749812450021910547","Brady R Thomas","1730 Jackson St","29812","Barnwell","SC","USA"
"2023893379","USFL100445409","DBUSA","1114000344854212450029890956","Mitta Primary Care","9401 Sw Highway 200 Ste 701","34481","Ocala","FL","USA"
"2034109728","USCO101598602","DBUSA","1114001921940411140019219404","Colorspray Media","810 Quail St Ste I","80215","Denver","CO","USA"
"0141494970","USNY101477041","DnB","030383859","Frank Tolisano","15 Model CT","11778","Rocky Point","NY","USA"
"0896372461","USVA100699024","DnB","785261350","Aaron's","3312 Williamson Rd NW","24012","Roanoke","VA","USA"
"2000037110","USWA100001277","DBUSA","1113254204292712438202910494","Danyel F Ryan","546 N 5th Ave","98382","Sequim","WA","USA"
"0131191137","USCA102696650","DnB","020080026","PayScan America","6537 Abbottswood Dr","90275","Rancho Palos Verdes","CA","USA"
"2015949668","USMA100213401","DBUSA","1113254769237879914960","Mccullough C Richard","5 N Meadows Rd Ste 7","02052","Medfield","MA","USA"
"2032737048","USAZ100552212","DBUSA","1114001836626511140018366265","North Vly Symphony Orchestra","16032 N 62nd Way","85254","Scottsdale","AZ","USA"
"2009988387","USNY100614812","DBUSA","1113255239181312450012890414","Self Reliance FCU","225 N 4th St","11757","Lindenhurst","NY","USA"
"2007319568","USME100037196","DBUSA","1113254559192411132545591924","Fairfield Center United Methodist","","04937","Fairfield","ME","USA"
"2012124654","USIN100212446","DBUSA","1113257878467811132578784678","Walmart - Bakery","16865 Clover Rd","46060","Noblesville","IN","USA"
"0168691216","USAZ100220588","DnB","057580105","Stax 3D","1497 E Baseline Rd","85233","Gilbert","AZ","USA"
"2016975550","USMA100413367","DBUSA","1114000875915612450021719461","Lerner, Lori B","150 S Huntington Ave","02130","Jamaica Plain","MA","USA"
"2034779074","USVT100005878","DBUSA","1113254719986912450036390871","Momentum Physical Therapy","78 Eastwood Dr","05403","South Burlington","VT","USA"
"2021184678","USUT100151547","DBUSA","1114001159970211140011599702","Weber State Credit Union","2388 N Washington Rd Blvd 400 E","84414","Ogden","UT","USA"
"2002169025","USGA100061038","DBUSA","1113254720420512438211898711","Dr Thien Le","5430 Jimmy Carter Blvd Ste 125","30093","Norcross","GA","USA"
"2008479846","USMO100303437","DBUSA","1113254820784511132548207845","H&R Block","443 S Kirkwood Rd","63122","Saint Louis","MO","USA"
"2023381643","USIA100047351","DBUSA","1113254357523612450029983239","Jaguar Alley","3911 Rockingham Rd","52802","Davenport","IA","USA"
"2032869662","USTX102353817","DBUSA","1114001833009612450033180071","Tex Mex Masonry","1440 County Road 150","78626","Georgetown","TX","USA"
"2033674051","USIN100544375","DBUSA","1114002023495411140020234954","Christian Fellowship Worship","2468 N State Road 39","46350","La Porte","IN","USA"
"0119819274","USVT100065060","DnB","008708163","Wellness Center","1734 Crawford Farm Rd","05855","Newport","VT","USA"
"2000170943","USPA100007436","DBUSA","1113254161215412438202297099","Kyra A Yurko","1200 S Cedar Crest Blvd","18103","Allentown","PA","USA"
"2034956288","USIL101220949","DBUSA","1114002066710011140020667100","Talcott Resolution Life Insurance Company","2 N La Salle St Ste 2500","60602","Chicago","IL","USA"
"2012943788","USCA101457897","DBUSA","1114000410935712450016201432","Foundation Laboratory","3008 Sillect Ave","93308","Bakersfield","CA","USA"
"2029835018","USSC100201305","DBUSA","1113254932407912450021947789","Lakewood Elementary","1675 Highway 396","29575","Myrtle Beach","SC","USA"
"2025304029","USAL100322962","DBUSA","1114001332046311140013320463","Area Sand & Gravel","","36104","Montgomery","AL","USA"
"2016830453","USGA100525262","DBUSA","1114000861982312450021586648","Vitkin, Michael, MD","601 Fleming St Ste E","30721","Dalton","GA","USA"
"0191627191","USIN100500689","DnB","080516080","36 Degrees","36 E Washington St","46204","Indianapolis","IN","USA"
"2032915880","USPA101235185","DBUSA","1114001841579412450033305772","Walton Iii George A Od","1875 Hempstead Rd","17601","Lancaster","PA","USA"
"2000404845","USGA100010287","DBUSA","1113254211758112438203019113","Sapp Danny","200 Perry House Rd","31750","Fitzgerald","GA","USA"
"2034492301","USOH101025651","DBUSA","1114002050822311140020508223","4725 Manufacturing Avenue","20525 Center Ridge Rd Ste 626","44116","Rocky River","OH","USA"
"0198124235","USCA102742928","DnB","087013124","Overland Parts","17955 Damian Way","93907","Salinas","CA","USA"
"2022366131","USMA100502565","DBUSA","1114001250632011140012506320","Cheap Thrills Tattoo","167 Chestnut St","01040","Holyoke","MA","USA"
"2007670877","USCA100859662","DBUSA","1113254504547112438253588428","Able Services","3300 W Macarthur Blvd","92704","Santa Ana","CA","USA"
"2034497863","USGA101081422","DBUSA","1114002069118411140020691184","3825 Norwich","3900 Newcastle St","31520","Brunswick","GA","USA"
"2009676847","USCA101079700","DBUSA","1113254926728612438246231038","Hair Clinic","27013 Langside Ave Ste B","91351","Canyon Country","CA","USA"
"2020715850","USWA100331571","DBUSA","1113256749853712440000364760","Cascade Center For Public Service & Leadership","4100 15th Ave S","98108","Seattle","WA","USA"
"2032514003","USTX102372350","DBUSA","1114001814224911140018142249","Traveltame","501 Congress Ave Ste 150","78701","Austin","TX","USA"
"2016842538","USDE100053096","DBUSA","1114000862541212450021591990","Phyllis O Eason","1213 Delaware Ave","19806","Wilmington","DE","USA"
"0233370728","USNC100818001","DnB","122259617","Action Auto Center","321 Washington St","27892","Williamston","NC","USA"
"0124776699","USCA103262904","DnB","013665588","Sunshine Air Tour","20695 S Wstn Ave","90501","Torrance","CA","USA"
"2001290501","USCA100152369","DBUSA","1113254481063511132544810635","Teaching Of The Inner Christ","773 Molino Ave","90804","Long Beach","CA","USA"
"0199028077","USCT100329101","DnB","087916966","James E Robson DDS","15 Chesterfield Rd","06333","East Lyme","CT","USA"
"2005472614","USTX100381280","DBUSA","1113255371750212438252804769","Sun Trax","4003 College Ave Ste 120","79549","Snyder","TX","USA"
"2021072657","USLA100282172","DBUSA","1114001133571811140011335718","Voodoo Rigging","10134 Florida Blvd","70815","Baton Rouge","LA","USA"
"0161137473","USNY101633056","DnB","050026362","locksmith manhattan","51 Greenwich Ave","10014","New York","NY","USA"
"2013331483","USMA100319753","DBUSA","1113256923281012438242292858","Blumberg Jeffrey B","711 Washington St","02111","Boston","MA","USA"
"2027230492","USFL101477899","DBUSA","1114001338373612450031031178","Walmart - Pharmacy","1940 Pat Thomas Pkwy","32351","Quincy","FL","USA"
"0979670951","USAZ100430479","DnB","868559840","Piano Excellence","5490 Brandis Way","86004","Flagstaff","AZ","USA"
"2032967209","USVA100749331","DBUSA","1114001889714112450033081633","Yetta4u","7663 King Eider Dr","23231","Henrico","VA","USA"
"0987439069","USFL101805082","DnB","876327958","Rich-Look Lawn Care","1937 Grey Falcon Cir SW","32962","Vero Beach","FL","USA"
